{"type":"FeatureCollection", "features": [
{"type":"Feature","geometry":{"type":"Polygon","coordinates":[[[47.5244,19.333],[48.1838,20.7075],[47.87955,21.05473],[47.89634,21.25723],[47.89866,21.36056],[47.8917,21.37198],[47.84477,21.38215],[47.82246,21.39125],[47.81747,21.4],[47.84406,21.46353],[47.86583,21.56614],[47.90937,21.63181],[47.939,21.69963],[47.95631,21.70962],[47.99985,21.71461],[48.08066,21.78449],[48.13784,21.85569],[48.00949,21.89501],[47.97244,21.8956],[47.94359,21.88771],[47.82829,21.96875],[47.8063,21.99998],[47.82769,22.08593],[47.8698,22.16344],[47.8821,22.22801],[47.95012,22.34332],[47.97323,22.3675],[47.98856,22.40162],[47.99245,22.43487],[48.02173,22.48623],[48.01407,22.52637],[48.03289,22.57367],[48.03056,22.60832],[48.05589,22.6906],[48.07137,22.82585],[48.09019,22.89614],[48.0837,22.91496],[48.08903,22.94694],[48.07671,22.97775],[48.09015,23.0572],[48.08194,23.1051],[48.10841,23.23971],[48.10988,23.27703],[48.10253,23.38636],[48.09195,23.42369],[48.10429,23.50921],[48.12369,23.57152],[48.13985,23.68114],[48.13368,23.75167],[48.11928,23.7699],[48.12193,23.80252],[48.1378,23.82427],[48.13133,23.8469],[48.13398,23.88217],[48.12193,23.90097],[48.1137,23.93565],[48.1011,24.13272],[48.10738,24.21957],[48.09658,24.26015],[48.1065,24.28152],[48.09305,24.33312],[48.06461,24.36531],[48.0053,24.46232],[47.97192,24.58403],[47.92957,24.55808],[47.87988,24.53923],[47.78319,24.5265],[47.73986,24.50961],[47.72591,24.5128],[47.73301,24.53189],[47.7242,24.56714],[47.74256,24.63029],[47.72934,24.76444],[47.73913,24.79185],[47.7428,24.84938],[47.70731,24.90593],[47.69703,24.94215],[47.67597,24.96712],[47.64342,24.97863],[47.62152,25.00318],[47.61831,25.03458],[47.63594,25.08139],[47.6861,25.11478],[47.67591,25.15999],[47.67834,25.19062],[47.77963,25.26822],[47.74052,25.30649],[47.74138,25.3198],[47.7259,25.32926],[47.7259,25.34775],[47.73277,25.35247],[47.72633,25.37028],[47.74045,25.40925],[47.6423,25.56469],[47.67384,25.69737],[47.72067,25.72891],[47.67925,25.76324],[47.69957,25.79179],[47.70127,25.82277],[47.62494,25.88156],[47.61953,25.9047],[47.62774,25.94948],[47.62196,25.9868],[47.57035,26.07132],[47.57554,26.08655],[47.59856,26.09369],[47.6057,26.10244],[47.61088,26.13454],[47.59824,26.18026],[47.5629,26.25353],[47.55414,26.2921],[47.53145,26.33135],[47.52269,26.37155],[47.48703,26.42051],[47.45524,26.4017],[47.4332,26.40203],[47.40857,26.391],[47.37809,26.39327],[47.34437,26.40851],[47.33043,26.40689],[47.31565,26.39245],[47.18949,26.4986],[47.1718,26.49335],[47.15127,26.5068],[47.13311,26.60008],[46.95898,26.61189],[46.89369,26.68086],[46.63579,26.79436],[46.53227,26.75536],[46.53535,26.68778],[46.38342,26.75579],[46.28713,26.81417],[46.26532,26.78297],[46.25156,26.80378],[46.22975,26.81048],[46.21935,26.83196],[46.20123,26.84404],[46.19418,26.87994],[46.17975,26.87826],[46.14207,26.85524],[46.0303,26.93484],[45.84935,27.20834],[45.77331,27.22418],[45.74476,27.28319],[45.55631,27.3165],[45.47921,27.29747],[45.40402,27.29557],[45.30884,27.30413],[45.24698,27.32602],[45.2051,27.43643],[45.24412,27.49544],[45.20795,27.53351],[45.09497,27.51247],[45.09491,27.54682],[45.1073,27.57626],[45.10658,27.59168],[45.06712,27.6697],[45.03768,27.68559],[45.02556,27.7021],[45.00799,27.69612],[44.99215,27.69901],[44.93983,27.64476],[44.92495,27.63948],[44.89971,27.64137],[44.87273,27.626],[44.93888,27.60263],[44.98947,27.56925],[44.97784,27.53836],[44.88601,27.51233],[44.8389,27.45094],[44.83176,27.31531],[44.89544,27.28888],[44.87589,27.12603],[44.67614,27.09402],[44.45481,26.98805],[44.47311,26.90486],[44.49983,26.84637],[44.46228,26.8507],[44.37852,26.88247],[44.32942,26.87381],[44.3453,26.80738],[44.34458,26.58281],[44.38213,26.57342],[44.3834,26.56005],[44.39577,26.55857],[44.37757,26.53574],[44.36743,26.50899],[44.39349,26.46858],[44.39071,26.38],[44.38224,26.33144],[44.44159,26.30454],[44.47127,26.20994],[44.52533,26.19198],[44.51618,26.18667],[44.52348,26.17545],[44.5151,26.17064],[44.52027,26.15626],[44.50388,26.11252],[44.56772,26.02739],[44.53416,26.01466],[44.63453,25.84327],[44.69813,25.85352],[44.80008,25.71758],[44.7171,25.4843],[44.45043,25.60053],[44.37617,25.51992],[44.34731,25.52253],[44.29222,25.50909],[44.25188,25.51326],[44.22728,25.50483],[44.23909,25.49791],[44.23415,25.48011],[44.20867,25.4929],[44.1813,25.49761],[44.17342,25.48924],[44.13641,25.47614],[44.11124,25.45287],[44.06713,25.43428],[44.00067,25.3336],[43.94653,25.36799],[43.86771,25.33385],[43.7968,25.34559],[43.78691,25.33403],[43.76725,25.33398],[43.72983,25.26361],[43.74451,25.20948],[43.7108,25.20764],[43.70095,25.1839],[43.61672,25.16703],[43.56732,25.1836],[43.53365,25.23333],[43.46722,25.20068],[43.45173,25.18124],[43.43883,25.18514],[43.39913,25.14544],[43.36879,25.13342],[43.34393,25.13259],[43.25598,25.06792],[43.28333,25.0335],[43.26503,25.03095],[43.13739,25.05264],[43.10313,24.97936],[43.10765,24.94876],[43.1008,24.93432],[43.13352,24.91445],[43.17134,24.93305],[43.20717,24.92707],[43.21728,24.91477],[43.13352,24.86101],[43.13198,24.85146],[43.16286,24.80784],[43.1174,24.78427],[43.1169,24.76697],[43.13585,24.76706],[43.21496,24.79566],[43.22876,24.79376],[43.17298,24.65655],[43.16119,24.58436],[43.13457,24.52859],[42.95867,24.5898],[42.81735,24.53412],[42.81742,24.4836],[42.56713,24.48395],[42.434,24.7334],[42.38445,24.73075],[42.31559,24.76167],[42.2975,24.77894],[42.1429,24.76619],[42.12193,24.75749],[42.13148,24.71283],[42.13044,24.68195],[42.0831,24.65245],[42.08086,24.61057],[42.06397,24.59414],[42.09205,24.56987],[42.09039,24.48657],[42.12474,24.4224],[42.09871,24.40569],[42.09491,24.39712],[42.12727,24.39427],[42.11251,24.36762],[42.1168,24.36286],[42.14345,24.36333],[42.14868,24.35572],[42.1566,24.28491],[42.14774,24.20647],[42.10084,24.14566],[42.08939,24.10159],[42.09349,24.09576],[42.15318,24.08337],[42.10047,23.99557],[42.11559,23.93543],[42.07161,23.89796],[42.06972,23.88769],[42.03689,23.85079],[41.99886,23.8462],[41.98444,23.85352],[41.91722,23.83433],[41.93168,23.78133],[41.92259,23.76132],[41.89888,23.74813],[41.88261,23.7475],[41.86197,23.75626],[41.80753,23.75563],[41.79419,23.76487],[41.79422,23.78673],[41.7874,23.79756],[41.75442,23.76991],[41.70411,23.76474],[41.68603,23.74281],[41.69232,23.71887],[41.70562,23.70794],[41.70415,23.68804],[41.69576,23.68145],[41.72203,23.68663],[41.73243,23.66014],[41.75314,23.64119],[41.82096,23.63452],[41.99176,23.6004],[42.04143,23.61438],[42.08397,23.59599],[42.1174,23.59407],[42.1462,23.60106],[42.17918,23.59473],[42.24242,23.60364],[42.27446,23.4908],[42.30493,23.46765],[42.32559,23.4673],[42.32293,23.45492],[42.39508,23.43651],[42.42393,23.37137],[42.41037,23.28276],[42.44468,23.21414],[42.45751,23.14102],[42.469,23.1162],[42.49249,23.10687],[42.58992,23.09072],[42.66117,23.08588],[42.68326,23.05609],[42.68518,23.01118],[42.66005,23.00545],[42.67571,22.98504],[42.74836,22.94302],[42.74215,22.91442],[42.74681,22.8978],[42.75745,22.88827],[42.79003,22.88539],[42.81641,22.91132],[42.8634,22.89957],[42.89731,22.83374],[42.91571,22.75816],[42.93053,22.74271],[42.98311,22.72052],[43.19437,22.70654],[43.22042,22.6993],[43.24176,22.68258],[43.24465,22.65531],[43.23677,22.64329],[43.21092,22.62918],[43.16156,22.62331],[43.14614,22.60525],[43.14744,22.59158],[43.1968,22.52576],[43.22736,22.49755],[43.23178,22.44651],[43.24065,22.42191],[43.25439,22.41859],[43.31491,22.43211],[43.33596,22.38135],[43.37808,22.3563],[43.3681,22.34034],[43.31247,22.32549],[43.27146,22.27695],[43.29119,22.24858],[43.31358,22.23749],[43.33221,22.20269],[43.37788,22.02261],[43.46396,22.00021],[43.4902,21.96169],[43.48138,21.93571],[43.4987,21.89173],[43.48671,21.83377],[43.49586,21.79396],[43.48541,21.77717],[43.49435,21.75658],[43.55784,21.67404],[43.59476,21.64784],[43.62864,21.65361],[43.63429,21.64012],[43.62331,21.60271],[43.64568,21.59169],[43.63569,21.55124],[43.57547,21.51692],[43.55512,21.46964],[43.60907,21.4501],[43.65446,21.42552],[43.66635,21.40887],[43.66556,21.38588],[43.61739,21.29807],[43.55783,21.14004],[43.57068,21.10007],[43.58334,21.09926],[43.64641,21.05712],[43.79133,20.86521],[43.8032,20.79834],[43.83016,20.72393],[43.83016,20.69049],[43.81735,20.6317],[43.82671,20.61807],[43.87562,20.61471],[43.8969,20.59039],[43.92332,20.57676],[43.96962,20.52613],[43.96996,20.51763],[44.01076,20.52113],[44.07323,20.50164],[44.07072,20.48782],[44.04025,20.46618],[44.03442,20.43669],[44.0574,20.23564],[44.08255,20.16119],[44.08572,20.10839],[44.08056,20.0734],[44.09305,20.04177],[44.12353,20.00595],[44.12736,19.98647],[44.14335,19.97148],[44.14785,19.95732],[44.15517,19.95982],[44.174,19.939],[44.17834,19.92134],[44.16933,19.90052],[44.18516,19.86538],[44.2037,19.84612],[44.24036,19.8269],[44.25003,19.80317],[44.22796,19.67599],[44.23013,19.6615],[44.2168,19.64335],[44.24978,19.61953],[44.34739,19.49677],[44.36804,19.43415],[44.3782,19.41799],[44.3902,19.41716],[44.55294,19.4195],[45.08889,19.44889],[45.11917,19.20833],[45.36167,19.30389],[45.40559,19.30448],[45.40699,19.2959],[46.53732,19.31575],[47.5244,19.333]]]},"properties":{"region_id":1,"name_en":"Riyadh","name_ar":"منطقة الرياض"}},
{"type":"Feature","geometry":{"type":"Polygon","coordinates":[[[40.60486,19.6395],[40.58703,19.63452],[40.62088,19.61828],[40.64773,19.61563],[40.60486,19.6395]]]},"properties":{"region_id":2,"name_en":"Makkah","name_ar":"منطقة مكة المكرمة"}},
{"type":"Feature","geometry":{"type":"Polygon","coordinates":[[[42.12193,24.75749],[42.1133,24.78636],[42.12384,24.84914],[42.08729,24.8734],[41.95023,25.15323],[41.75178,25.20897],[41.73404,25.20004],[41.72251,25.20616],[41.63828,25.21544],[41.6133,25.23114],[41.60045,25.25399],[41.58688,25.31395],[41.57618,25.31894],[41.55547,25.31038],[41.45167,25.38205],[41.38388,25.46702],[41.323,25.51879],[41.25651,25.49473],[41.0953,25.53506],[41.05801,25.52554],[41.04382,25.5361],[40.99794,25.54166],[40.96223,25.52504],[40.8994,25.54166],[40.88226,25.58468],[40.85534,25.59534],[40.85834,25.56985],[40.83053,25.56219],[40.79921,25.52405],[40.7729,25.50723],[40.77589,25.47758],[40.74891,25.42828],[40.71809,25.41628],[40.67629,25.41379],[40.65397,25.41862],[40.602,25.40363],[40.52955,25.44077],[40.49623,25.44477],[40.48308,25.40279],[40.4486,25.38047],[40.48608,25.33417],[40.48408,25.29836],[40.47342,25.2767],[40.45658,25.29386],[40.43261,25.30285],[40.36806,25.3075],[40.33741,25.31592],[40.31949,25.29642],[40.33067,25.26572],[40.32301,25.25439],[40.2842,25.2882],[40.2354,25.29036],[40.22308,25.31535],[40.22224,25.35266],[40.21508,25.36215],[40.14079,25.36647],[40.12414,25.35033],[40.09182,25.34783],[40.0675,25.33184],[40.02003,25.36965],[39.99838,25.36582],[39.9519,25.37248],[39.92818,25.35617],[39.91877,25.38231],[39.95541,25.40879],[39.96274,25.42378],[39.94592,25.45193],[39.95841,25.47208],[39.95291,25.48607],[39.96157,25.49707],[39.96107,25.52188],[39.96957,25.54121],[39.96124,25.59201],[39.97864,25.68029],[39.94376,25.77523],[39.96808,25.84385],[39.95224,25.867],[39.94941,25.89132],[39.97206,25.93712],[39.95791,25.94429],[39.95158,25.95911],[39.94808,25.99925],[39.9573,26.0596],[39.88466,26.12045],[39.87107,26.14559],[39.86922,26.17392],[39.90688,26.21647],[39.87862,26.24693],[39.86512,26.28174],[39.87096,26.37453],[39.87979,26.3975],[39.83981,26.42599],[39.82299,26.46163],[39.78835,26.49361],[39.77186,26.58305],[39.76153,26.60121],[39.74304,26.60704],[39.69107,26.59971],[39.67125,26.6137],[39.66542,26.63151],[39.67009,26.65583],[39.66419,26.7246],[39.61895,26.78326],[39.60963,26.79159],[39.59963,26.79076],[39.55516,26.76444],[39.52003,26.77227],[39.46122,26.77477],[39.43502,26.79885],[39.35398,26.74772],[39.14464,26.78791],[39.09896,26.804],[39.03249,26.79642],[38.99501,26.78593],[38.95787,26.79126],[38.9231,26.8093],[38.83567,26.81931],[38.77981,26.80308],[38.75465,26.77772],[38.73081,26.77687],[38.68228,26.80071],[38.6627,26.82717],[38.64073,26.8289],[38.62724,26.84955],[38.60769,26.80556],[38.58541,26.82108],[38.54857,26.83124],[38.57587,26.85618],[38.56018,26.86748],[38.54088,26.86732],[38.49809,26.82155],[38.46644,26.86885],[38.47732,26.89879],[38.44977,26.91545],[38.4531,26.95552],[38.44004,26.97725],[38.38649,26.98761],[38.34052,27.00677],[38.3142,27.03907],[38.28739,27.05641],[38.25312,27.1116],[38.16805,27.14536],[38.13864,27.18466],[38.12632,27.18882],[38.10717,27.18532],[37.99687,27.12256],[37.97741,27.12919],[37.97125,27.15651],[37.95309,27.18366],[37.96925,27.23796],[37.94444,27.29525],[37.9481,27.32007],[37.93728,27.34989],[37.94444,27.39069],[37.93361,27.41985],[37.88031,27.46598],[37.85899,27.45982],[37.85149,27.44683],[37.81401,27.44749],[37.77921,27.41318],[37.76122,27.42017],[37.71651,27.46074],[37.67943,27.38699],[37.66427,27.31234],[37.63399,27.29628],[37.6294,27.27761],[37.60574,27.24585],[37.5643,27.2268],[37.53607,27.17922],[37.5347,27.16201],[37.58502,27.10951],[37.59648,27.08956],[37.59362,27.06231],[37.60692,27.02231],[37.59679,26.94196],[37.58487,26.93611],[37.58586,26.92108],[37.55166,26.90783],[37.5329,26.8754],[37.50344,26.86721],[37.47335,26.84754],[37.44558,26.77559],[37.42356,26.7517],[37.35914,26.79181],[37.34285,26.81383],[37.28907,26.83253],[37.27481,26.8252],[37.27043,26.79792],[37.25006,26.77259],[37.12688,26.76403],[37.10809,26.75529],[37.10426,26.74709],[37.12538,26.73702],[37.12899,26.72747],[37.1135,26.71369],[37.12135,26.69841],[37.09929,26.65917],[37.11265,26.63116],[37.09844,26.62586],[37.09398,26.59404],[37.08592,26.58407],[37.10628,26.55692],[37.084,26.5497],[37.08889,26.53506],[37.16822,26.49526],[37.21236,26.39696],[37.20978,26.39024],[37.31011,26.35441],[37.37959,26.29445],[37.39672,26.2697],[37.37254,26.19427],[37.38714,26.17278],[37.37984,26.16021],[37.40579,26.11926],[37.40392,26.10719],[37.45908,26.08003],[37.47838,26.08236],[37.50195,26.06522],[37.52359,26.03243],[37.53907,25.97969],[37.56876,25.952],[37.54773,25.94458],[37.54711,25.92602],[37.52383,25.88629],[37.52801,25.86444],[37.58995,25.82688],[37.61129,25.80646],[37.61253,25.79486],[37.62012,25.79724],[37.66417,25.77236],[37.75126,25.7519],[37.83199,25.71769],[37.84608,25.69232],[37.84514,25.67314],[37.82796,25.65891],[37.81776,25.66],[37.8108,25.62937],[37.79517,25.62829],[37.76177,25.6105],[37.74569,25.61684],[37.73177,25.60633],[37.72547,25.57625],[37.71119,25.55622],[37.72187,25.53115],[37.76255,25.49127],[37.7545,25.45522],[37.776,25.4362],[37.80663,25.42336],[37.80755,25.39722],[37.78714,25.38531],[37.79424,25.36582],[37.7791,25.34247],[37.78451,25.31153],[37.77012,25.29963],[37.77986,25.29174],[37.78232,25.2721],[37.82518,25.20342],[37.87127,25.18811],[37.86818,25.16012],[37.83184,25.10274],[37.83075,25.07938],[37.85086,25.04969],[37.91318,25.00746],[37.89167,24.98299],[37.90807,24.96882],[37.91996,24.93055],[37.93156,24.9145],[37.99074,24.90062],[38.0013,24.91597],[38.01306,24.89699],[38.03267,24.88239],[38.04266,24.86146],[38.03716,24.85934],[38.02949,24.82975],[38.03568,24.82202],[38.03182,24.78568],[37.97814,24.79696],[37.94906,24.81553],[37.92479,24.80826],[37.89262,24.81738],[37.87483,24.81305],[37.83768,24.78852],[37.78477,24.78974],[37.77631,24.7583],[37.82347,24.72922],[37.82813,24.71484],[37.77616,24.67865],[37.78296,24.64957],[37.73841,24.6733],[37.67714,24.67966],[37.66679,24.68633],[37.65536,24.68084],[37.6289,24.68509],[37.6256,24.6732],[37.58684,24.66692],[37.56343,24.66845],[37.53616,24.69104],[37.50391,24.69268],[37.47331,24.67991],[37.42612,24.60501],[37.368,24.56073],[37.38407,24.53536],[37.41413,24.51131],[37.42796,24.47526],[37.43408,24.47343],[37.42989,24.47872],[37.43461,24.47898],[37.44654,24.44966],[37.46159,24.43665],[37.46136,24.41376],[37.45591,24.40801],[37.43499,24.41773],[37.43415,24.39972],[37.42473,24.39333],[37.42693,24.36957],[37.46975,24.34106],[37.50082,24.28702],[37.52211,24.27018],[37.53983,24.27487],[37.55584,24.27173],[37.56934,24.26322],[37.57688,24.24585],[37.59938,24.25205],[37.61828,24.24731],[37.62782,24.27202],[37.61611,24.27612],[37.61016,24.2991],[37.62869,24.29866],[37.62514,24.29077],[37.64587,24.28674],[37.65861,24.29217],[37.6566,24.29792],[37.69282,24.30004],[37.6973,24.27819],[37.71357,24.27813],[37.71969,24.26023],[37.73936,24.25752],[37.74694,24.26307],[37.74374,24.26682],[37.7543,24.26999],[37.75387,24.25788],[37.76432,24.24614],[37.76065,24.24013],[37.78104,24.20922],[37.81465,24.19045],[37.8483,24.15718],[37.86628,24.1509],[37.89253,24.15544],[37.92965,24.14727],[37.93415,24.15878],[37.92385,24.17679],[37.93057,24.18054],[37.91884,24.18754],[37.90882,24.18613],[37.91006,24.19706],[37.93936,24.20212],[37.93587,24.21065],[37.95257,24.21009],[37.94932,24.20336],[37.95587,24.20136],[37.93341,24.17981],[37.93767,24.16215],[37.95132,24.15889],[37.95495,24.17074],[37.96327,24.17491],[37.97824,24.17556],[37.98511,24.16638],[37.96067,24.16804],[37.95508,24.15472],[37.93379,24.14511],[37.99534,24.10632],[38.03904,24.06977],[38.04873,24.06787],[38.07121,24.08225],[38.077,24.07866],[38.0699,24.06958],[38.06457,24.07281],[38.05438,24.06678],[38.07398,24.05792],[38.07843,24.07552],[38.08168,24.07689],[38.07785,24.06752],[38.09416,24.05749],[38.0966,24.05153],[38.09898,24.05775],[38.10679,24.05387],[38.1247,24.03191],[38.13571,24.03263],[38.13558,24.02351],[38.14368,24.01682],[38.15125,24.01954],[38.14866,24.01311],[38.16062,24.01923],[38.15631,24.00422],[38.16891,23.99139],[38.19183,24.00071],[38.19095,23.99465],[38.17504,23.99032],[38.19155,23.98774],[38.18664,23.98068],[38.2103,23.97534],[38.18963,23.9753],[38.21618,23.95282],[38.2243,23.95078],[38.21751,23.9672],[38.22551,23.95239],[38.23636,23.95174],[38.22861,23.94849],[38.24861,23.93711],[38.25522,23.95071],[38.28578,23.93849],[38.28047,23.91728],[38.28852,23.91492],[38.28179,23.918],[38.28761,23.91914],[38.28328,23.92305],[38.28944,23.93489],[38.30661,23.91255],[38.29828,23.90743],[38.30775,23.90903],[38.31024,23.90427],[38.30264,23.89923],[38.31123,23.90241],[38.30988,23.89601],[38.31695,23.89482],[38.31186,23.89434],[38.3235,23.89209],[38.31988,23.88715],[38.32841,23.89681],[38.32044,23.88667],[38.32609,23.89242],[38.3715,23.86527],[38.4041,23.81587],[38.40051,23.80985],[38.40586,23.81475],[38.41154,23.80777],[38.41268,23.81253],[38.42807,23.8131],[38.44014,23.80609],[38.46359,23.78045],[38.4634,23.73622],[38.49183,23.66172],[38.48969,23.67908],[38.49694,23.67725],[38.51532,23.63853],[38.53922,23.63217],[38.52823,23.62803],[38.52928,23.61718],[38.51686,23.6238],[38.5438,23.5982],[38.54345,23.54047],[38.56678,23.52789],[38.57808,23.53784],[38.59512,23.53242],[38.58328,23.53911],[38.56213,23.54177],[38.55484,23.5503],[38.55516,23.56241],[38.56564,23.57036],[38.57163,23.56104],[38.57857,23.55586],[38.57411,23.5592],[38.58011,23.55716],[38.58901,23.56073],[38.595,23.57219],[38.60515,23.57117],[38.60306,23.56184],[38.59841,23.56458],[38.59899,23.54331],[38.61672,23.53293],[38.62219,23.51692],[38.63775,23.50729],[38.64435,23.45405],[38.65079,23.44441],[38.65474,23.44677],[38.65117,23.43232],[38.65744,23.42177],[38.66371,23.43219],[38.66584,23.41022],[38.69054,23.39713],[38.73371,23.38981],[38.88303,23.44605],[38.89069,23.42749],[38.93116,23.38835],[38.94815,23.38069],[38.97251,23.38738],[38.98579,23.38414],[38.99221,23.35841],[39.01619,23.34959],[39.02982,23.32498],[39.04198,23.32032],[39.04498,23.32681],[39.07079,23.33781],[39.08312,23.33596],[39.10877,23.31149],[39.10961,23.28467],[39.12374,23.27936],[39.12448,23.26283],[39.13962,23.24553],[39.13875,23.22188],[39.12003,23.19687],[39.15256,23.18812],[39.20538,23.11768],[39.28577,23.08979],[39.27161,23.06165],[39.25412,23.05398],[39.27777,23.04466],[39.28851,23.03178],[39.33102,23.02203],[39.34815,23.03345],[39.4007,23.01717],[39.41069,23.04081],[39.41969,23.04482],[39.45533,23.04116],[39.54027,23.0901],[39.53725,23.11436],[39.6342,23.11286],[39.63868,23.10087],[39.62919,23.08888],[39.64918,23.08655],[39.65184,23.06656],[39.65917,23.07306],[39.6735,23.06406],[39.7203,23.08038],[39.73231,23.0967],[39.79215,23.0731],[39.85587,23.05848],[39.86871,23.03541],[39.85472,23.02059],[39.83441,23.02109],[39.8314,23.0136],[39.84522,23.0041],[39.84642,22.99358],[39.85992,22.98093],[39.86341,22.95444],[39.88517,22.92386],[39.88093,22.91224],[39.83596,22.8869],[39.79963,22.83571],[39.80255,22.81995],[39.81843,22.80111],[39.83483,22.80113],[39.87225,22.8147],[39.88217,22.79966],[39.92604,22.79325],[39.96202,22.77639],[39.97351,22.76257],[40.01199,22.77389],[40.06135,22.75935],[40.10185,22.69324],[40.14695,22.66522],[40.12991,22.63831],[40.15123,22.59756],[40.14391,22.56685],[40.17139,22.5422],[40.17472,22.53087],[40.19804,22.5397],[40.23402,22.53154],[40.26198,22.53413],[40.30335,22.52291],[40.31896,22.52854],[40.33162,22.51971],[40.34428,22.53547],[40.35831,22.53265],[40.37996,22.53892],[40.37602,22.57099],[40.41074,22.58001],[40.51908,22.64691],[40.57148,22.62971],[40.58714,22.61106],[40.58614,22.5909],[40.60529,22.57841],[40.65209,22.58208],[40.7422,22.61106],[40.77535,22.6422],[40.78478,22.68948],[40.80209,22.72192],[40.80641,22.79764],[40.83237,22.86577],[40.9189,22.88849],[40.95676,22.88632],[41.01948,22.86362],[41.04335,22.86473],[41.06966,22.88205],[41.07966,22.9202],[41.0958,22.94201],[41.08782,22.9725],[41.14197,23.03254],[41.17794,23.0442],[41.2016,23.02787],[41.21426,23.02971],[41.24407,23.01888],[41.25623,23.02987],[41.27089,23.02671],[41.29104,23.05935],[41.31286,23.07351],[41.33352,23.07584],[41.35084,23.06518],[41.37432,23.06835],[41.38781,23.07967],[41.4143,23.07752],[41.43645,23.09233],[41.44744,23.10782],[41.46127,23.10865],[41.42629,23.1498],[41.39031,23.17694],[41.36916,23.18444],[41.36982,23.23574],[41.39297,23.27005],[41.36699,23.25939],[41.34501,23.26089],[41.357,23.27322],[41.35067,23.338],[41.36932,23.39349],[41.36449,23.4078],[41.34934,23.41664],[41.34534,23.42795],[41.36441,23.47303],[41.36441,23.53334],[41.37892,23.55548],[41.38884,23.5906],[41.4148,23.60511],[41.43236,23.63717],[41.47818,23.65855],[41.51607,23.6733],[41.52703,23.66008],[41.54535,23.66237],[41.60185,23.68909],[41.63086,23.6952],[41.65071,23.68298],[41.6698,23.68833],[41.69576,23.68145],[41.70415,23.68804],[41.70562,23.70794],[41.69232,23.71887],[41.68603,23.74281],[41.70411,23.76474],[41.75442,23.76991],[41.7874,23.79756],[41.79422,23.78673],[41.79419,23.76487],[41.80753,23.75563],[41.86197,23.75626],[41.88261,23.7475],[41.89888,23.74813],[41.92259,23.76132],[41.93168,23.78133],[41.91722,23.83433],[41.98444,23.85352],[41.99886,23.8462],[42.03689,23.85079],[42.06972,23.88769],[42.07161,23.89796],[42.11559,23.93543],[42.10047,23.99557],[42.15318,24.08337],[42.09349,24.09576],[42.08939,24.10159],[42.10084,24.14566],[42.14774,24.20647],[42.1566,24.28491],[42.14868,24.35572],[42.14345,24.36333],[42.1168,24.36286],[42.11251,24.36762],[42.12727,24.39427],[42.09491,24.39712],[42.09871,24.40569],[42.12474,24.4224],[42.09039,24.48657],[42.09205,24.56987],[42.06397,24.59414],[42.08086,24.61057],[42.0831,24.65245],[42.13044,24.68195],[42.13148,24.71283],[42.12193,24.75749]]]},"properties":{"region_id":3,"name_en":"Madinah","name_ar":"منطقة المدينة المنورة"}},
{"type":"Feature","geometry":{"type":"Polygon","coordinates":[[[44.87273,27.626],[44.78943,27.67092],[44.70868,27.72578],[44.67066,27.83176],[44.6504,27.85215],[44.65023,28.00902],[44.53887,28.08963],[44.36766,28.25052],[44.19518,28.1144],[44.2507,28.05092],[44.13508,27.9432],[44.10303,27.92578],[44.05177,27.88363],[44.02068,27.86888],[43.98367,27.84052],[43.93338,27.8341],[43.91857,27.82447],[43.90153,27.83427],[43.90193,27.81752],[43.87178,27.83415],[43.65857,27.7869],[43.49008,27.67373],[43.3926,27.6203],[43.39655,27.58549],[43.40697,27.58002],[43.40393,27.56577],[43.40999,27.56151],[43.41149,27.54213],[43.41811,27.52867],[43.42849,27.53012],[43.4565,27.47016],[43.45526,27.44588],[43.4675,27.42077],[43.46065,27.40106],[43.46542,27.3577],[43.4803,27.32388],[43.4536,27.31144],[43.42434,27.30868],[43.39547,27.29333],[43.367,27.2608],[43.34501,27.26434],[43.34855,27.29065],[43.33015,27.29027],[43.33045,27.27619],[43.30787,27.22368],[43.2343,27.16675],[43.16732,27.05093],[43.1328,27.02484],[43.06672,26.95088],[42.9501,26.91737],[42.917,26.9003],[42.81696,26.81154],[42.78452,26.80031],[42.77457,26.76493],[42.62127,26.61987],[42.60942,26.59929],[42.60052,26.54138],[42.51977,26.5009],[42.36695,26.45027],[42.27547,26.46338],[42.27432,26.45062],[42.24002,26.41728],[42.23692,26.40338],[42.20173,26.36702],[42.20002,26.35628],[42.19263,26.3584],[42.18528,26.33397],[42.16743,26.3214],[42.17622,26.3014],[42.21096,26.27742],[42.18438,26.23878],[42.0236,26.13335],[41.98587,26.0344],[41.91877,26.00227],[41.90093,25.97038],[41.90091,25.9528],[41.85973,25.89105],[41.83902,25.88431],[41.79235,25.85347],[41.7511,25.85765],[41.67162,25.88577],[41.7003,25.78938],[41.58592,25.7682],[41.56913,25.72531],[41.45477,25.73622],[41.31988,25.61668],[41.30731,25.56266],[41.32828,25.53819],[41.323,25.51879],[41.38388,25.46702],[41.45167,25.38205],[41.55547,25.31038],[41.57618,25.31894],[41.58688,25.31395],[41.60045,25.25399],[41.6133,25.23114],[41.63828,25.21544],[41.72251,25.20616],[41.73404,25.20004],[41.75178,25.20897],[41.95023,25.15323],[42.08729,24.8734],[42.12384,24.84914],[42.1133,24.78636],[42.12193,24.75749],[42.1429,24.76619],[42.2975,24.77894],[42.31559,24.76167],[42.38445,24.73075],[42.434,24.7334],[42.56713,24.48395],[42.81742,24.4836],[42.81735,24.53412],[42.95867,24.5898],[43.13457,24.52859],[43.16119,24.58436],[43.17298,24.65655],[43.22876,24.79376],[43.21496,24.79566],[43.13585,24.76706],[43.1169,24.76697],[43.1174,24.78427],[43.16286,24.80784],[43.13198,24.85146],[43.13352,24.86101],[43.21728,24.91477],[43.20717,24.92707],[43.17134,24.93305],[43.13352,24.91445],[43.1008,24.93432],[43.10765,24.94876],[43.10313,24.97936],[43.13739,25.05264],[43.26503,25.03095],[43.28333,25.0335],[43.25598,25.06792],[43.34393,25.13259],[43.36879,25.13342],[43.39913,25.14544],[43.43883,25.18514],[43.45173,25.18124],[43.46722,25.20068],[43.53365,25.23333],[43.56732,25.1836],[43.61672,25.16703],[43.70095,25.1839],[43.7108,25.20764],[43.74451,25.20948],[43.72983,25.26361],[43.76725,25.33398],[43.78691,25.33403],[43.7968,25.34559],[43.86771,25.33385],[43.94653,25.36799],[44.00067,25.3336],[44.06713,25.43428],[44.11124,25.45287],[44.13641,25.47614],[44.17342,25.48924],[44.1813,25.49761],[44.20867,25.4929],[44.23415,25.48011],[44.23909,25.49791],[44.22728,25.50483],[44.25188,25.51326],[44.29222,25.50909],[44.34731,25.52253],[44.37617,25.51992],[44.45043,25.60053],[44.7171,25.4843],[44.80008,25.71758],[44.69813,25.85352],[44.63453,25.84327],[44.53416,26.01466],[44.56772,26.02739],[44.50388,26.11252],[44.52027,26.15626],[44.5151,26.17064],[44.52348,26.17545],[44.51618,26.18667],[44.52533,26.19198],[44.47127,26.20994],[44.44159,26.30454],[44.38224,26.33144],[44.39071,26.38],[44.39349,26.46858],[44.36743,26.50899],[44.37757,26.53574],[44.39577,26.55857],[44.3834,26.56005],[44.38213,26.57342],[44.34458,26.58281],[44.3453,26.80738],[44.32942,26.87381],[44.37852,26.88247],[44.46228,26.8507],[44.49983,26.84637],[44.47311,26.90486],[44.45481,26.98805],[44.67614,27.09402],[44.87589,27.12603],[44.89544,27.28888],[44.83176,27.31531],[44.8389,27.45094],[44.88601,27.51233],[44.97784,27.53836],[44.98947,27.56925],[44.93888,27.60263],[44.87273,27.626]]]},"properties":{"region_id":4,"name_en":"Qassim","name_ar":"منطقة القصيم"}},
{"type":"Feature","geometry":{"type":"Polygon","coordinates":[[[50.31616,26.18835],[50.32487,26.18311],[50.3225,26.18814],[50.31616,26.18835]]]},"properties":{"region_id":5,"name_en":"Eastern Province","name_ar":"المنطقة الشرقية"}},
{"type":"Feature","geometry":{"type":"Polygon","coordinates":[[[43.81735,20.6317],[43.78984,20.68065],[43.68132,20.69265],[43.6069,20.72932],[43.56592,20.75736],[43.49582,20.75952],[43.4462,20.7757],[43.38904,20.7757],[43.26609,20.80266],[43.20677,20.80266],[43.19922,20.80158],[43.14647,20.74466],[43.13981,20.71767],[43.12882,20.70368],[43.0696,20.65986],[42.8501,20.59068],[42.76133,20.51405],[42.74388,20.51331],[42.73701,20.5037],[42.70765,20.48793],[42.61196,20.46164],[42.53746,20.42173],[42.43503,20.41241],[42.3725,20.38847],[42.33392,20.36319],[42.27671,20.33791],[42.23701,20.28648],[42.21239,20.28728],[42.19001,20.30089],[42.19515,20.3518],[42.13856,20.37572],[42.14094,20.39421],[42.11894,20.40995],[42.08064,20.40454],[42.00838,20.35953],[41.98613,20.30755],[41.99471,20.28609],[41.97186,20.27671],[41.96627,20.24759],[41.91798,20.23072],[41.8769,20.18332],[41.86376,20.14933],[41.87652,20.12392],[41.87279,20.11061],[41.87803,20.08811],[41.87126,20.07702],[41.85061,20.10359],[41.84593,20.09868],[41.8451,20.07013],[41.85428,20.03248],[41.84275,20.00548],[41.85469,19.99619],[41.84502,19.98934],[41.83978,19.97211],[41.84421,19.92015],[41.80745,19.88941],[41.80765,19.8737],[41.78807,19.85943],[41.80369,19.81352],[41.78304,19.75266],[41.79492,19.74695],[41.81068,19.77149],[41.82763,19.7822],[41.8312,19.76153],[41.85619,19.71899],[41.84384,19.70501],[41.85098,19.67958],[41.82525,19.65906],[41.81527,19.62298],[41.80106,19.59891],[41.8022,19.59028],[41.83102,19.57916],[41.83939,19.56615],[41.82117,19.53961],[41.8522,19.48489],[41.8482,19.4754],[41.86369,19.4679],[41.88731,19.43556],[41.90983,19.44092],[41.92011,19.43554],[41.91776,19.4146],[41.93682,19.39053],[41.93644,19.37198],[41.91395,19.36709],[41.92255,19.32476],[41.90428,19.31916],[41.91002,19.30972],[41.90159,19.31141],[41.91418,19.29708],[41.91603,19.24942],[41.88801,19.23279],[41.87914,19.21272],[41.86696,19.16759],[41.86001,19.16375],[41.86841,19.14124],[41.80895,19.1194],[41.7962,19.10172],[41.77974,19.14054],[41.76708,19.15138],[41.75569,19.19002],[41.73921,19.20596],[41.73188,19.20362],[41.71291,19.21581],[41.6548,19.2155],[41.6206,19.23391],[41.60538,19.2217],[41.60929,19.19848],[41.6249,19.20514],[41.64582,19.19929],[41.59587,19.17471],[41.59369,19.15754],[41.58803,19.15505],[41.59086,19.14322],[41.57905,19.12399],[41.58096,19.10926],[41.57187,19.09675],[41.57938,19.05045],[41.55072,19.06027],[41.53873,19.05544],[41.50291,19.05861],[41.48223,19.03213],[41.44976,19.00549],[41.44896,18.99098],[41.49408,18.98288],[41.53836,18.89572],[41.55691,18.89519],[41.56859,18.88546],[41.5722,18.85983],[41.58129,18.85086],[41.58326,18.82247],[41.61016,18.80896],[41.6222,18.79107],[41.61917,18.78426],[41.60706,18.78872],[41.60356,18.78027],[41.58922,18.77374],[41.59991,18.76657],[41.62427,18.6984],[41.48409,18.664],[41.37864,18.65558],[41.38118,18.63259],[41.36574,18.56469],[41.38179,18.54056],[41.41967,18.51334],[41.41844,18.5029],[41.42523,18.49733],[41.41428,18.48812],[41.41628,18.47389],[41.42015,18.48618],[41.43643,18.48146],[41.42118,18.47738],[41.43169,18.45826],[41.42646,18.47564],[41.43615,18.4773],[41.43094,18.46485],[41.43845,18.45582],[41.43247,18.45707],[41.44909,18.44505],[41.44219,18.4444],[41.44139,18.42915],[41.44457,18.43485],[41.45076,18.43004],[41.45471,18.41215],[41.44219,18.40595],[41.44194,18.39677],[41.45792,18.33942],[41.48005,18.31153],[41.47226,18.3067],[41.47279,18.29489],[41.47957,18.28827],[41.49163,18.29402],[41.48479,18.28731],[41.50662,18.28356],[41.50128,18.26849],[41.51322,18.27398],[41.51576,18.28164],[41.51239,18.26102],[41.50959,18.26647],[41.49054,18.24631],[41.4913,18.23339],[41.50064,18.2266],[41.50557,18.2375],[41.50165,18.23144],[41.50144,18.24627],[41.51037,18.24041],[41.51318,18.25274],[41.51607,18.24316],[41.52911,18.23484],[41.53458,18.2228],[41.53083,18.21271],[41.52441,18.21149],[41.52452,18.20212],[41.53296,18.20835],[41.54164,18.19681],[41.54674,18.19922],[41.56288,18.17394],[41.54641,18.17002],[41.57097,18.16466],[41.5688,18.15793],[41.58291,18.13944],[41.57615,18.13976],[41.57538,18.13285],[41.5814,18.12947],[41.57922,18.10208],[41.58456,18.09146],[41.60482,18.08044],[41.60031,18.07888],[41.60234,18.06172],[41.61445,18.06353],[41.63134,18.05204],[41.64255,18.05153],[41.64629,18.03801],[41.63933,18.03486],[41.6508,18.01626],[41.63405,18.01571],[41.63813,17.99808],[41.65126,17.99019],[41.66216,18.00246],[41.66013,18.01407],[41.66856,18.01678],[41.66693,18.0079],[41.67447,18.00503],[41.66952,18.00092],[41.67224,17.99132],[41.65983,17.98474],[41.66572,17.97637],[41.67842,17.97671],[41.67142,17.973],[41.68015,17.96686],[41.67729,17.96373],[41.69108,17.95753],[41.68336,17.95064],[41.68425,17.95526],[41.67017,17.9635],[41.67097,17.95643],[41.69669,17.94027],[41.69448,17.93454],[41.70587,17.92935],[41.71656,17.91319],[41.77826,17.86143],[41.77445,17.8384],[41.80341,17.83749],[41.83533,17.81076],[41.86425,17.80955],[41.87878,17.80206],[41.88446,17.81011],[41.89131,17.80678],[41.88211,17.7977],[41.89826,17.78469],[41.89822,17.77589],[41.92816,17.76037],[41.95064,17.78284],[41.96429,17.78195],[42.00108,17.79713],[42.01493,17.82373],[42.03281,17.83282],[42.07164,17.89853],[42.07974,17.93827],[42.07763,17.99862],[42.08531,18.01722],[42.07092,18.03723],[42.07803,18.04577],[42.1842,18.04213],[42.21616,18.03462],[42.20802,18.05964],[42.21239,18.0604],[42.22448,18.05239],[42.23533,18.03083],[42.2322,18.00606],[42.24111,17.97758],[42.23161,17.98281],[42.23081,17.96997],[42.25187,17.95117],[42.26402,17.88361],[42.30425,17.86078],[42.3217,17.85733],[42.32718,17.84646],[42.3524,17.83864],[42.359,17.82432],[42.37258,17.82548],[42.38849,17.8395],[42.39089,17.8555],[42.40447,17.85202],[42.40316,17.83814],[42.38443,17.81258],[42.36297,17.80582],[42.36249,17.78109],[42.38364,17.74041],[42.37927,17.72061],[42.39602,17.69662],[42.42533,17.67873],[42.45922,17.69777],[42.45079,17.77277],[42.44233,17.78493],[42.44392,17.80924],[42.45185,17.81876],[42.47397,17.81399],[42.50506,17.84017],[42.56038,17.8186],[42.57711,17.80187],[42.5857,17.80502],[42.61808,17.77146],[42.65942,17.75599],[42.71708,17.77805],[42.72688,17.77081],[42.76788,17.76355],[42.77566,17.76985],[42.79375,17.76965],[42.80086,17.77784],[42.83122,17.77451],[42.84359,17.77808],[42.85506,17.79569],[42.86539,17.7851],[42.86784,17.7605],[42.87657,17.74445],[42.87308,17.72351],[42.8961,17.71304],[42.91022,17.7166],[42.96365,17.68495],[42.97224,17.66536],[42.97878,17.66584],[42.98452,17.67631],[42.99857,17.66847],[43.00733,17.65085],[42.99913,17.63844],[43.00258,17.63051],[43.03085,17.5993],[43.04445,17.60115],[43.05459,17.58024],[43.0696,17.58688],[43.06393,17.59126],[43.06853,17.60136],[43.1323,17.60069],[43.15246,17.60616],[43.17081,17.6001],[43.18752,17.55817],[43.17379,17.53422],[43.15934,17.52429],[43.15347,17.50918],[43.15986,17.49761],[43.17296,17.49214],[43.21102,17.4954],[43.23059,17.48729],[43.24627,17.49493],[43.23649,17.50605],[43.23093,17.50566],[43.23027,17.49778],[43.22356,17.50114],[43.22964,17.50748],[43.22679,17.53061],[43.24127,17.52906],[43.24153,17.53514],[43.25019,17.53837],[43.26573,17.51472],[43.27307,17.52131],[43.28108,17.51988],[43.28832,17.53126],[43.29555,17.5275],[43.29788,17.53539],[43.30313,17.52843],[43.33589,17.53983],[43.35475,17.55639],[43.37556,17.544],[43.37944,17.55539],[43.41961,17.56583],[43.43128,17.56392],[43.44542,17.55],[43.46453,17.55242],[43.48464,17.54511],[43.49569,17.52689],[43.52033,17.50906],[43.52719,17.51425],[43.56653,17.48336],[43.61781,17.42611],[43.68333,17.36667],[43.72044,17.37],[43.69298,17.40208],[43.6943,17.41691],[43.68397,17.4309],[43.70412,17.4324],[43.72378,17.45389],[43.63797,17.52725],[43.6405,17.54451],[43.61527,17.64896],[43.60419,17.66026],[43.59586,17.65926],[43.5969,17.70687],[43.61152,17.75135],[43.59671,17.77943],[43.6118,17.85874],[43.60652,17.87313],[43.61935,17.87446],[43.62268,17.88012],[43.61335,17.90011],[43.64359,17.94482],[43.64568,17.95761],[43.66766,17.96092],[43.66953,17.9735],[43.70862,18.01803],[43.68434,18.06299],[43.71129,18.09998],[43.72012,18.14328],[43.75577,18.17813],[43.73513,18.23139],[43.74039,18.2418],[43.76105,18.24951],[43.81905,18.24922],[43.83005,18.26088],[43.83521,18.25955],[43.85339,18.28708],[43.84355,18.31199],[43.86069,18.35332],[43.92333,18.40132],[43.93568,18.40518],[43.94531,18.40063],[43.95763,18.41712],[43.98428,18.42661],[44.00128,18.44293],[43.99694,18.45876],[43.92732,18.46875],[43.91383,18.47641],[43.98496,18.55067],[44.00177,18.56119],[43.98478,18.64298],[44.01393,18.66913],[44.02874,18.74771],[44.05729,18.76318],[44.12305,18.77795],[44.20422,18.87085],[44.31702,18.94198],[44.36637,18.93363],[44.37654,18.93762],[44.37237,18.9706],[44.3762,19.02641],[44.36671,19.08853],[44.40452,19.11635],[44.42101,19.15982],[44.42284,19.1843],[44.43483,19.1888],[44.44079,19.2025],[44.43622,19.25394],[44.3872,19.31822],[44.39652,19.3412],[44.38337,19.39101],[44.3902,19.41716],[44.3782,19.41799],[44.36804,19.43415],[44.34739,19.49677],[44.24978,19.61953],[44.2168,19.64335],[44.23013,19.6615],[44.22796,19.67599],[44.25003,19.80317],[44.24036,19.8269],[44.2037,19.84612],[44.18516,19.86538],[44.16933,19.90052],[44.17834,19.92134],[44.174,19.939],[44.15517,19.95982],[44.14785,19.95732],[44.14335,19.97148],[44.12736,19.98647],[44.12353,20.00595],[44.09305,20.04177],[44.08056,20.0734],[44.08572,20.10839],[44.08255,20.16119],[44.0574,20.23564],[44.03442,20.43669],[44.04025,20.46618],[44.07072,20.48782],[44.07323,20.50164],[44.01076,20.52113],[43.96996,20.51763],[43.96962,20.52613],[43.92332,20.57676],[43.8969,20.59039],[43.87562,20.61471],[43.82671,20.61807],[43.81735,20.6317]]]},"properties":{"region_id":6,"name_en":"Asir","name_ar":"منطقة عسير"}},
{"type":"Feature","geometry":{"type":"Polygon","coordinates":[[[39.52003,26.77227],[39.52038,26.80138],[39.53076,26.82527],[39.5639,26.86385],[39.56747,26.89764],[39.60863,26.92404],[39.60911,26.95094],[39.63124,26.99757],[39.68269,27.04559],[39.66429,27.07181],[39.66096,27.14337],[39.64765,27.20328],[39.64598,27.29896],[39.68675,27.35804],[39.72157,27.39172],[39.79438,27.44026],[39.91726,27.45777],[39.9132,27.52344],[39.92249,27.58816],[39.91487,27.62242],[39.89607,27.63883],[39.87608,27.69143],[39.84111,27.71998],[39.7978,27.79446],[39.61554,27.90034],[39.54867,27.95745],[39.51131,27.97554],[39.47871,27.98315],[39.41114,27.98624],[39.24719,27.97958],[39.12751,27.99933],[39.16201,28.01004],[39.28098,28.02289],[39.36022,28.04478],[39.38829,28.0612],[39.4059,28.09261],[39.40686,28.1145],[39.38948,28.1321],[39.22506,28.21372],[39.17034,28.23204],[39.11442,28.2632],[39.13482,28.29612],[39.21392,28.36794],[39.21088,28.42676],[39.22268,28.50842],[39.21069,28.57999],[39.1966,28.61369],[39.17909,28.62873],[39.1256,28.62607],[39.08144,28.61388],[39.05579,28.59747],[39.05102,28.6407],[39.01764,28.71895],[38.98655,28.85231],[38.97224,28.85108],[38.94734,28.87687],[38.93161,28.87899],[38.92649,28.89453],[38.9113,28.903],[38.89258,28.89877],[38.85654,28.93534],[38.77687,28.93025],[38.7782,28.9746],[38.77135,28.99954],[38.77725,29.01001],[38.79514,29.01744],[38.77839,29.04218],[38.77135,29.08596],[38.76963,29.25728],[38.65523,29.27994],[38.58289,29.32429],[38.56043,29.33],[38.52579,29.27365],[38.45897,29.20189],[38.44184,29.19599],[38.39216,29.2135],[38.37997,29.20684],[38.38206,29.17524],[38.42376,29.12099],[38.41317,29.10793],[38.37909,29.08959],[38.36404,29.04736],[38.36474,29.00525],[38.32991,29.01268],[38.30897,29.0064],[38.28308,29.0163],[38.20485,29.01686],[38.19952,29.06122],[38.20389,29.10024],[38.19742,29.12822],[38.21855,29.1602],[38.22445,29.18457],[38.21627,29.19542],[38.18797,29.20441],[38.2068,29.21942],[38.20483,29.25405],[38.27105,29.27778],[38.29977,29.30696],[38.31506,29.34328],[38.3128,29.36206],[38.29058,29.38631],[38.2353,29.41944],[38.23892,29.46039],[38.19076,29.51312],[38.18581,29.54528],[38.16392,29.5392],[38.13023,29.54149],[38.0952,29.56718],[38.07826,29.56604],[38.0537,29.58413],[38.02439,29.58298],[37.99659,29.59764],[37.97281,29.58584],[37.96328,29.57023],[37.93016,29.55786],[37.87781,29.55405],[37.81556,29.56205],[37.7202,29.56395],[37.72172,29.60088],[37.73295,29.63724],[37.72419,29.67207],[37.73714,29.717],[37.71296,29.74536],[37.72686,29.80646],[37.68841,29.8255],[37.67261,29.83997],[37.61969,29.85481],[37.60217,29.86547],[37.58181,29.89079],[37.53773,29.92683],[37.49552,29.92782],[37.417,29.90521],[37.36565,29.97614],[36.75577,29.86739],[36.50574,29.50073],[36.07236,29.18407],[34.95703,29.35607],[34.94427,29.32335],[34.95151,29.30224],[34.93545,29.30135],[34.92852,29.29034],[34.93963,29.25237],[34.93379,29.24645],[34.94171,29.24164],[34.91157,29.22521],[34.91625,29.20482],[34.89614,29.18573],[34.89255,29.14978],[34.88135,29.14217],[34.87263,29.07042],[34.85468,29.04896],[34.84706,29.02743],[34.86017,29.01315],[34.86119,28.99515],[34.84467,28.97203],[34.84326,28.93738],[34.8216,28.88328],[34.84005,28.86748],[34.83399,28.851],[34.839,28.84517],[34.82853,28.83199],[34.83416,28.81157],[34.81498,28.7764],[34.81924,28.76886],[34.81406,28.76839],[34.80566,28.72431],[34.77509,28.66219],[34.78468,28.65165],[34.79751,28.61329],[34.79219,28.57751],[34.80133,28.5598],[34.80563,28.52335],[34.79275,28.49645],[34.77455,28.48214],[34.76321,28.46036],[34.75487,28.42421],[34.73928,28.40602],[34.72306,28.34926],[34.69585,28.29314],[34.67669,28.2684],[34.68732,28.27093],[34.67324,28.25752],[34.67271,28.24744],[34.67861,28.24527],[34.67092,28.24403],[34.66175,28.21642],[34.66694,28.20726],[34.66319,28.2007],[34.65102,28.1997],[34.64513,28.18848],[34.65463,28.18456],[34.64526,28.17747],[34.65571,28.1745],[34.65863,28.16446],[34.64432,28.16461],[34.6415,28.17654],[34.63126,28.17403],[34.62511,28.1649],[34.62857,28.15987],[34.61596,28.15456],[34.61093,28.13918],[34.60044,28.14116],[34.59111,28.13208],[34.59207,28.12101],[34.58206,28.12041],[34.57111,28.09568],[34.5741,28.08724],[34.58175,28.08579],[34.59602,28.10046],[34.60993,28.09542],[34.60601,28.08859],[34.61167,28.07697],[34.60416,28.06185],[34.61494,28.04429],[34.61631,28.0495],[34.62247,28.04706],[34.61644,28.04229],[34.61944,28.03605],[34.61376,28.03894],[34.62441,28.02418],[34.63826,28.02947],[34.63775,28.03947],[34.64421,28.03289],[34.64837,28.06275],[34.65547,28.06939],[34.66495,28.06375],[34.66878,28.06825],[34.6661,28.07792],[34.64663,28.09149],[34.67641,28.11521],[34.67958,28.13329],[34.70365,28.12729],[34.70883,28.14014],[34.72269,28.1191],[34.71685,28.10869],[34.72479,28.11199],[34.74315,28.1015],[34.74898,28.10538],[34.76591,28.09147],[34.76896,28.10012],[34.7702,28.0916],[34.78612,28.09026],[34.78296,28.09686],[34.79148,28.10426],[34.81318,28.11148],[34.82088,28.10867],[34.814,28.09996],[34.81827,28.09421],[34.80462,28.08835],[34.7956,28.07153],[34.80845,28.07233],[34.82737,28.09302],[34.82857,28.10227],[34.82163,28.10482],[34.83443,28.11591],[34.842,28.10865],[34.85032,28.11577],[34.86493,28.10928],[34.83805,28.09574],[34.84461,28.08358],[34.83986,28.07637],[34.84734,28.07614],[34.84833,28.07063],[34.86131,28.07273],[34.86305,28.08043],[34.86999,28.07599],[34.88477,28.08139],[34.92716,28.07575],[34.95675,28.09254],[34.9386,28.089],[34.94797,28.09769],[34.9828,28.09967],[34.99916,28.11067],[35.02158,28.08803],[35.02709,28.09302],[35.03319,28.08811],[35.02952,28.10195],[35.01487,28.11433],[35.00634,28.11036],[35.01377,28.12138],[35.02304,28.11315],[35.02651,28.11623],[35.02279,28.11],[35.0351,28.11013],[35.03875,28.10483],[35.05864,28.11065],[35.08864,28.08573],[35.10487,28.07965],[35.10782,28.06848],[35.1465,28.06984],[35.16425,28.0555],[35.20015,28.05519],[35.22194,28.04656],[35.22465,28.03051],[35.2128,28.03206],[35.21138,28.02453],[35.19909,28.02825],[35.16227,28.01375],[35.16551,28.00145],[35.20582,27.98723],[35.21035,27.97733],[35.26767,27.94988],[35.26689,27.94081],[35.28223,27.91567],[35.30597,27.89662],[35.33241,27.86085],[35.34902,27.85132],[35.3523,27.81502],[35.36069,27.7963],[35.4291,27.7742],[35.44095,27.74429],[35.44976,27.7399],[35.47051,27.70312],[35.47256,27.67657],[35.48457,27.65264],[35.51573,27.62013],[35.52558,27.62845],[35.52853,27.61984],[35.51795,27.61785],[35.52538,27.6053],[35.53161,27.6056],[35.52585,27.6034],[35.52601,27.58879],[35.53474,27.58898],[35.52584,27.58431],[35.53017,27.56415],[35.54844,27.56313],[35.54431,27.55297],[35.53983,27.56062],[35.52787,27.55984],[35.53468,27.53153],[35.54563,27.5101],[35.58536,27.46923],[35.59085,27.43583],[35.59887,27.42914],[35.60251,27.43526],[35.61057,27.4165],[35.64193,27.37966],[35.65734,27.36471],[35.66449,27.3665],[35.66128,27.36048],[35.69145,27.34523],[35.69853,27.35176],[35.69522,27.34416],[35.7064,27.33933],[35.70035,27.34027],[35.74091,27.32287],[35.75525,27.28767],[35.80754,27.22464],[35.80745,27.20613],[35.81741,27.19683],[35.78956,27.16757],[35.78828,27.14309],[35.80333,27.12624],[35.8,27.11364],[35.81167,27.10924],[35.84765,27.07378],[35.91644,26.99563],[35.9496,26.98299],[35.96481,26.96596],[35.96933,26.96942],[35.96614,26.96297],[35.98285,26.94505],[36.00342,26.93846],[36.01521,26.92613],[36.01816,26.91183],[36.03976,26.89888],[36.04659,26.8832],[36.04651,26.85161],[36.05554,26.83281],[36.06485,26.83239],[36.06661,26.80407],[36.07938,26.78235],[36.09268,26.77293],[36.10034,26.73892],[36.12002,26.72425],[36.12611,26.72834],[36.12244,26.72359],[36.13252,26.72674],[36.14483,26.71993],[36.17333,26.66995],[36.20301,26.65768],[36.21515,26.64229],[36.22525,26.64369],[36.22961,26.61961],[36.23463,26.61492],[36.24018,26.62011],[36.2469,26.61288],[36.23547,26.61236],[36.24582,26.5932],[36.25286,26.59409],[36.24768,26.58813],[36.28346,26.54621],[36.31149,26.49577],[36.32026,26.4683],[36.34129,26.43671],[36.34432,26.40519],[36.35694,26.38119],[36.3715,26.37325],[36.3659,26.36974],[36.3734,26.35043],[36.45629,26.22561],[36.46541,26.22705],[36.45987,26.22089],[36.48291,26.17454],[36.48426,26.14259],[36.49654,26.11667],[36.50367,26.11668],[36.52177,26.09523],[36.565,26.06802],[36.57657,26.07284],[36.57384,26.06232],[36.59131,26.058],[36.5985,26.06202],[36.60195,26.05658],[36.61184,26.06257],[36.61261,26.05612],[36.62465,26.06239],[36.65125,26.05825],[36.68818,26.045],[36.69897,26.03055],[36.70648,26.03015],[36.71224,25.98733],[36.69864,25.96729],[36.70381,25.9592],[36.70093,25.92767],[36.69515,25.91964],[36.70015,25.94019],[36.68572,25.90125],[36.65321,25.86768],[36.64554,25.8507],[36.67255,25.84366],[36.67801,25.82667],[36.69461,25.80777],[36.69729,25.78392],[36.70527,25.77824],[36.70741,25.78608],[36.71849,25.78752],[36.72399,25.764],[36.74604,25.73861],[36.77252,25.73727],[36.78734,25.71203],[36.78563,25.72183],[36.80069,25.70812],[36.80764,25.71133],[36.80042,25.70842],[36.8033,25.71637],[36.80773,25.71198],[36.81483,25.71781],[36.7986,25.75112],[36.80383,25.75786],[36.79879,25.7583],[36.80326,25.75892],[36.80974,25.75603],[36.80999,25.75242],[36.82079,25.75125],[36.82798,25.73254],[36.84503,25.72297],[36.8589,25.69848],[36.87356,25.68666],[36.875,25.66986],[36.88363,25.67532],[36.89785,25.65735],[36.90436,25.6634],[36.93908,25.64609],[36.94653,25.62246],[36.96822,25.6063],[36.96193,25.59569],[36.96473,25.58415],[36.98334,25.55973],[36.99172,25.55805],[36.98472,25.55378],[36.99328,25.55884],[37.00041,25.547],[36.99974,25.4998],[37.02304,25.49023],[37.03922,25.46936],[37.07401,25.44821],[37.07479,25.40095],[37.08299,25.39807],[37.09154,25.37998],[37.08834,25.35473],[37.10898,25.33633],[37.11542,25.3073],[37.13179,25.29563],[37.17819,25.236],[37.19058,25.23368],[37.20775,25.20863],[37.22377,25.19997],[37.22832,25.2043],[37.23908,25.19047],[37.2392,25.17899],[37.25012,25.17075],[37.25899,25.15019],[37.26694,25.10362],[37.26301,25.08885],[37.24387,25.07157],[37.24432,25.06365],[37.26917,25.00836],[37.28619,24.98991],[37.28282,24.95905],[37.25853,24.9323],[37.24911,24.90577],[37.26611,24.86828],[37.22964,24.83453],[37.22246,24.81422],[37.20907,24.81766],[37.19951,24.81043],[37.1903,24.82165],[37.21631,24.83119],[37.17874,24.83965],[37.16427,24.83926],[37.15513,24.82432],[37.17567,24.79132],[37.1814,24.79481],[37.17414,24.80248],[37.17681,24.80808],[37.18223,24.79684],[37.21268,24.80364],[37.23085,24.79236],[37.22135,24.7727],[37.23301,24.76699],[37.23224,24.75996],[37.22616,24.75615],[37.20803,24.76349],[37.22783,24.72423],[37.22154,24.70661],[37.25372,24.69543],[37.28606,24.67474],[37.29356,24.67642],[37.31074,24.65069],[37.31868,24.62344],[37.32787,24.62165],[37.33552,24.62736],[37.3319,24.6354],[37.33702,24.63536],[37.34209,24.62958],[37.33673,24.61845],[37.368,24.56073],[37.42612,24.60501],[37.47331,24.67991],[37.50391,24.69268],[37.53616,24.69104],[37.56343,24.66845],[37.58684,24.66692],[37.6256,24.6732],[37.6289,24.68509],[37.65536,24.68084],[37.66679,24.68633],[37.67714,24.67966],[37.73841,24.6733],[37.78296,24.64957],[37.77616,24.67865],[37.82813,24.71484],[37.82347,24.72922],[37.77631,24.7583],[37.78477,24.78974],[37.83768,24.78852],[37.87483,24.81305],[37.89262,24.81738],[37.92479,24.80826],[37.94906,24.81553],[37.97814,24.79696],[38.03182,24.78568],[38.03568,24.82202],[38.02949,24.82975],[38.03716,24.85934],[38.04266,24.86146],[38.03267,24.88239],[38.01306,24.89699],[38.0013,24.91597],[37.99074,24.90062],[37.93156,24.9145],[37.91996,24.93055],[37.90807,24.96882],[37.89167,24.98299],[37.91318,25.00746],[37.85086,25.04969],[37.83075,25.07938],[37.83184,25.10274],[37.86818,25.16012],[37.87127,25.18811],[37.82518,25.20342],[37.78232,25.2721],[37.77986,25.29174],[37.77012,25.29963],[37.78451,25.31153],[37.7791,25.34247],[37.79424,25.36582],[37.78714,25.38531],[37.80755,25.39722],[37.80663,25.42336],[37.776,25.4362],[37.7545,25.45522],[37.76255,25.49127],[37.72187,25.53115],[37.71119,25.55622],[37.72547,25.57625],[37.73177,25.60633],[37.74569,25.61684],[37.76177,25.6105],[37.79517,25.62829],[37.8108,25.62937],[37.81776,25.66],[37.82796,25.65891],[37.84514,25.67314],[37.84608,25.69232],[37.83199,25.71769],[37.75126,25.7519],[37.66417,25.77236],[37.62012,25.79724],[37.61253,25.79486],[37.61129,25.80646],[37.58995,25.82688],[37.52801,25.86444],[37.52383,25.88629],[37.54711,25.92602],[37.54773,25.94458],[37.56876,25.952],[37.53907,25.97969],[37.52359,26.03243],[37.50195,26.06522],[37.47838,26.08236],[37.45908,26.08003],[37.40392,26.10719],[37.40579,26.11926],[37.37984,26.16021],[37.38714,26.17278],[37.37254,26.19427],[37.39672,26.2697],[37.37959,26.29445],[37.31011,26.35441],[37.20978,26.39024],[37.21236,26.39696],[37.16822,26.49526],[37.08889,26.53506],[37.084,26.5497],[37.10628,26.55692],[37.08592,26.58407],[37.09398,26.59404],[37.09844,26.62586],[37.11265,26.63116],[37.09929,26.65917],[37.12135,26.69841],[37.1135,26.71369],[37.12899,26.72747],[37.12538,26.73702],[37.10426,26.74709],[37.10809,26.75529],[37.12688,26.76403],[37.25006,26.77259],[37.27043,26.79792],[37.27481,26.8252],[37.28907,26.83253],[37.34285,26.81383],[37.35914,26.79181],[37.42356,26.7517],[37.44558,26.77559],[37.47335,26.84754],[37.50344,26.86721],[37.5329,26.8754],[37.55166,26.90783],[37.58586,26.92108],[37.58487,26.93611],[37.59679,26.94196],[37.60692,27.02231],[37.59362,27.06231],[37.59648,27.08956],[37.58502,27.10951],[37.5347,27.16201],[37.53607,27.17922],[37.5643,27.2268],[37.60574,27.24585],[37.6294,27.27761],[37.63399,27.29628],[37.66427,27.31234],[37.67943,27.38699],[37.71651,27.46074],[37.76122,27.42017],[37.77921,27.41318],[37.81401,27.44749],[37.85149,27.44683],[37.85899,27.45982],[37.88031,27.46598],[37.93361,27.41985],[37.94444,27.39069],[37.93728,27.34989],[37.9481,27.32007],[37.94444,27.29525],[37.96925,27.23796],[37.95309,27.18366],[37.97125,27.15651],[37.97741,27.12919],[37.99687,27.12256],[38.10717,27.18532],[38.12632,27.18882],[38.13864,27.18466],[38.16805,27.14536],[38.25312,27.1116],[38.28739,27.05641],[38.3142,27.03907],[38.34052,27.00677],[38.38649,26.98761],[38.44004,26.97725],[38.4531,26.95552],[38.44977,26.91545],[38.47732,26.89879],[38.46644,26.86885],[38.49809,26.82155],[38.54088,26.86732],[38.56018,26.86748],[38.57587,26.85618],[38.54857,26.83124],[38.58541,26.82108],[38.60769,26.80556],[38.62724,26.84955],[38.64073,26.8289],[38.6627,26.82717],[38.68228,26.80071],[38.73081,26.77687],[38.75465,26.77772],[38.77981,26.80308],[38.83567,26.81931],[38.9231,26.8093],[38.95787,26.79126],[38.99501,26.78593],[39.03249,26.79642],[39.09896,26.804],[39.14464,26.78791],[39.35398,26.74772],[39.43502,26.79885],[39.46122,26.77477],[39.52003,26.77227]]]},"properties":{"region_id":7,"name_en":"Tabuk","name_ar":"منطقة تبوك"}},
{"type":"Feature","geometry":{"type":"Polygon","coordinates":[[[41.323,25.51879],[41.32828,25.53819],[41.30731,25.56266],[41.31988,25.61668],[41.45477,25.73622],[41.56913,25.72531],[41.58592,25.7682],[41.7003,25.78938],[41.67162,25.88577],[41.7511,25.85765],[41.79235,25.85347],[41.83902,25.88431],[41.85973,25.89105],[41.90091,25.9528],[41.90093,25.97038],[41.91877,26.00227],[41.98587,26.0344],[42.0236,26.13335],[42.18438,26.23878],[42.21096,26.27742],[42.17622,26.3014],[42.16743,26.3214],[42.18528,26.33397],[42.19263,26.3584],[42.20002,26.35628],[42.20173,26.36702],[42.23692,26.40338],[42.24002,26.41728],[42.27432,26.45062],[42.27547,26.46338],[42.36695,26.45027],[42.51977,26.5009],[42.60052,26.54138],[42.60942,26.59929],[42.62127,26.61987],[42.77457,26.76493],[42.78452,26.80031],[42.81696,26.81154],[42.917,26.9003],[42.9501,26.91737],[43.06672,26.95088],[43.1328,27.02484],[43.16732,27.05093],[43.2343,27.16675],[43.30787,27.22368],[43.33045,27.27619],[43.33015,27.29027],[43.34855,27.29065],[43.34501,27.26434],[43.367,27.2608],[43.39547,27.29333],[43.42434,27.30868],[43.4536,27.31144],[43.4803,27.32388],[43.46542,27.3577],[43.46065,27.40106],[43.4675,27.42077],[43.45526,27.44588],[43.4565,27.47016],[43.42849,27.53012],[43.41811,27.52867],[43.41149,27.54213],[43.40999,27.56151],[43.40393,27.56577],[43.40697,27.58002],[43.39655,27.58549],[43.3926,27.6203],[43.49008,27.67373],[43.65857,27.7869],[43.87178,27.83415],[43.90193,27.81752],[43.90153,27.83427],[43.91857,27.82447],[43.93338,27.8341],[43.98367,27.84052],[44.02068,27.86888],[44.05177,27.88363],[44.10303,27.92578],[44.13508,27.9432],[44.2507,28.05092],[44.19518,28.1144],[44.36766,28.25052],[44.35093,28.31472],[44.3288,28.35511],[44.2981,28.43812],[43.95705,28.42605],[43.93657,28.40876],[43.91517,28.4124],[43.87693,28.40784],[43.83414,28.37916],[43.78633,28.37325],[43.74043,28.39467],[43.70081,28.39377],[43.64679,28.43069],[43.50047,28.46096],[43.46763,28.47795],[43.41338,28.48461],[43.38126,28.52411],[43.33961,28.52673],[43.30392,28.51864],[43.28394,28.50341],[43.25753,28.47057],[43.23944,28.42775],[43.22017,28.40775],[43.179,28.388],[43.15569,28.36231],[43.13427,28.38943],[43.10143,28.40204],[43.08834,28.39776],[43.05384,28.40323],[43.01411,28.42417],[43.01315,28.44321],[42.98294,28.42917],[42.95652,28.45154],[42.93559,28.45154],[42.91298,28.4325],[42.89466,28.43179],[42.90275,28.45939],[42.873,28.48033],[42.8485,28.48746],[42.83303,28.51197],[42.84469,28.55885],[42.85587,28.57574],[42.85468,28.60358],[42.84255,28.62167],[42.76355,28.64023],[42.73285,28.67758],[42.66956,28.65617],[42.64481,28.67758],[42.62982,28.70185],[42.5889,28.73112],[42.59961,28.76563],[42.55701,28.80393],[42.49705,28.80274],[42.45279,28.81583],[42.37264,28.82041],[42.33284,28.88687],[42.21194,29.00022],[42.19346,29.05122],[42.18012,29.0636],[42.09873,29.09659],[41.98833,29.09632],[41.86762,29.13794],[41.80732,29.13922],[41.73908,29.14922],[41.66942,29.16781],[41.65649,29.17893],[41.61404,29.20788],[41.50286,29.18128],[41.45108,29.14854],[41.43872,29.07487],[41.40425,29.01301],[41.42786,28.91897],[41.34867,28.92202],[41.23503,28.91363],[41.1941,28.92011],[40.8585,28.92316],[40.58115,28.9165],[40.54822,28.90393],[40.49968,28.86681],[40.30038,28.79238],[40.09669,28.69682],[39.91319,28.642],[39.87169,28.60107],[39.78508,28.55234],[39.6958,28.47925],[39.66515,28.47658],[39.62309,28.4564],[39.52201,28.44936],[39.46871,28.43261],[39.43882,28.41148],[39.39466,28.40101],[39.33051,28.40425],[39.29586,28.39968],[39.28691,28.39092],[39.21392,28.36794],[39.13482,28.29612],[39.11442,28.2632],[39.17034,28.23204],[39.22506,28.21372],[39.38948,28.1321],[39.40686,28.1145],[39.4059,28.09261],[39.38829,28.0612],[39.36022,28.04478],[39.28098,28.02289],[39.16201,28.01004],[39.12751,27.99933],[39.24719,27.97958],[39.41114,27.98624],[39.47871,27.98315],[39.51131,27.97554],[39.54867,27.95745],[39.61554,27.90034],[39.7978,27.79446],[39.84111,27.71998],[39.87608,27.69143],[39.89607,27.63883],[39.91487,27.62242],[39.92249,27.58816],[39.9132,27.52344],[39.91726,27.45777],[39.79438,27.44026],[39.72157,27.39172],[39.68675,27.35804],[39.64598,27.29896],[39.64765,27.20328],[39.66096,27.14337],[39.66429,27.07181],[39.68269,27.04559],[39.63124,26.99757],[39.60911,26.95094],[39.60863,26.92404],[39.56747,26.89764],[39.5639,26.86385],[39.53076,26.82527],[39.52038,26.80138],[39.52003,26.77227],[39.55516,26.76444],[39.59963,26.79076],[39.60963,26.79159],[39.61895,26.78326],[39.66419,26.7246],[39.67009,26.65583],[39.66542,26.63151],[39.67125,26.6137],[39.69107,26.59971],[39.74304,26.60704],[39.76153,26.60121],[39.77186,26.58305],[39.78835,26.49361],[39.82299,26.46163],[39.83981,26.42599],[39.87979,26.3975],[39.87096,26.37453],[39.86512,26.28174],[39.87862,26.24693],[39.90688,26.21647],[39.86922,26.17392],[39.87107,26.14559],[39.88466,26.12045],[39.9573,26.0596],[39.94808,25.99925],[39.95158,25.95911],[39.95791,25.94429],[39.97206,25.93712],[39.94941,25.89132],[39.95224,25.867],[39.96808,25.84385],[39.94376,25.77523],[39.97864,25.68029],[39.96124,25.59201],[39.96957,25.54121],[39.96107,25.52188],[39.96157,25.49707],[39.95291,25.48607],[39.95841,25.47208],[39.94592,25.45193],[39.96274,25.42378],[39.95541,25.40879],[39.91877,25.38231],[39.92818,25.35617],[39.9519,25.37248],[39.99838,25.36582],[40.02003,25.36965],[40.0675,25.33184],[40.09182,25.34783],[40.12414,25.35033],[40.14079,25.36647],[40.21508,25.36215],[40.22224,25.35266],[40.22308,25.31535],[40.2354,25.29036],[40.2842,25.2882],[40.32301,25.25439],[40.33067,25.26572],[40.31949,25.29642],[40.33741,25.31592],[40.36806,25.3075],[40.43261,25.30285],[40.45658,25.29386],[40.47342,25.2767],[40.48408,25.29836],[40.48608,25.33417],[40.4486,25.38047],[40.48308,25.40279],[40.49623,25.44477],[40.52955,25.44077],[40.602,25.40363],[40.65397,25.41862],[40.67629,25.41379],[40.71809,25.41628],[40.74891,25.42828],[40.77589,25.47758],[40.7729,25.50723],[40.79921,25.52405],[40.83053,25.56219],[40.85834,25.56985],[40.85534,25.59534],[40.88226,25.58468],[40.8994,25.54166],[40.96223,25.52504],[40.99794,25.54166],[41.04382,25.5361],[41.05801,25.52554],[41.0953,25.53506],[41.25651,25.49473],[41.323,25.51879]]]},"properties":{"region_id":8,"name_en":"Hail","name_ar":"منطقة حائل"}},
{"type":"Feature","geometry":{"type":"Polygon","coordinates":[[[44.67066,27.83176],[44.77447,27.93625],[44.77856,27.9308],[44.80533,27.94508],[44.80533,27.95757],[44.83031,27.98077],[44.84102,28.00397],[45.0641,28.68033],[45.08078,28.79524],[45.06263,28.93193],[45.06935,29.00964],[45.08172,29.03914],[45.1368,29.04479],[45.31288,29.08227],[45.46414,29.14139],[44.72193,29.19741],[44.07648,29.67875],[43.36252,30.20066],[42.72315,30.66067],[42.08555,31.11164],[41.44078,31.37315],[40.41328,31.948],[39.20284,32.15396],[39.00602,32.00069],[37.9842,31.74987],[37.96697,31.70827],[37.98887,31.68657],[37.96451,31.6584],[37.96888,31.63289],[37.95525,31.59585],[38.09602,31.51202],[38.20159,31.47243],[38.22248,31.41085],[38.22468,31.32728],[38.21975,31.31596],[38.22336,31.31907],[38.23138,31.30128],[38.22807,31.28715],[38.24412,31.25332],[38.26644,31.24582],[38.27725,31.24965],[38.28144,31.24093],[38.29155,31.24373],[38.29574,31.2364],[38.29382,31.19053],[38.26679,31.16839],[38.26225,31.15705],[38.219,31.15252],[38.21517,31.14152],[38.2204,31.13368],[38.20348,31.12914],[38.18301,31.08627],[38.19008,31.06658],[38.18171,31.05135],[38.19046,31.02127],[38.18132,30.99253],[38.16933,30.97882],[38.17428,30.94494],[38.18646,30.93466],[38.18989,30.87698],[38.17961,30.85814],[38.21521,30.86651],[38.2449,30.86194],[38.27212,30.88764],[38.32009,30.89887],[38.38919,30.90382],[38.39909,30.90953],[38.41032,30.9042],[38.49465,30.91678],[38.58393,30.94341],[38.72232,30.9417],[38.7621,30.92723],[38.76458,30.91258],[38.77847,30.89716],[38.80512,30.89411],[38.80627,30.91086],[38.85785,30.90744],[38.93171,30.96075],[38.97054,30.95446],[38.99034,30.96112],[39.00481,30.97616],[39.05011,30.97292],[39.11141,30.98073],[39.21001,30.98149],[39.30285,30.96147],[39.34575,30.96093],[39.37315,30.94913],[39.38819,30.92248],[39.43349,30.9063],[39.45519,30.90839],[39.53399,30.95759],[39.55289,30.94833],[39.55733,30.955],[39.58346,30.96334],[39.61217,30.96315],[39.661,30.95176],[39.7017,30.90059],[39.74263,30.8707],[39.76395,30.86366],[39.79555,30.86784],[39.83609,30.89297],[39.88787,30.90915],[39.89948,30.88821],[39.97392,30.85661],[40.00494,30.82139],[40.01922,30.8155],[40.05729,30.81454],[40.06643,30.79476],[40.09726,30.77114],[40.11744,30.76619],[40.15076,30.77248],[40.19149,30.7641],[40.2151,30.77324],[40.23565,30.80122],[40.26421,30.81283],[40.27449,30.83758],[40.288,30.84024],[40.28686,30.85585],[40.30304,30.85776],[40.32875,30.85623],[40.3493,30.84176],[40.39594,30.8471],[40.40412,30.83777],[40.41801,30.83853],[40.42582,30.83071],[40.43724,30.8332],[40.44847,30.82197],[40.46732,30.81835],[40.47874,30.82273],[40.63838,30.7429],[40.70222,30.77133],[40.88401,30.79722],[40.89562,30.7936],[41.00298,30.79989],[41.04429,30.79246],[41.05153,30.78504],[41.10559,30.7719],[41.11472,30.76124],[41.11339,30.73193],[41.12329,30.72051],[41.12272,30.70052],[41.13623,30.67996],[41.11986,30.6259],[41.13318,30.5344],[41.18203,30.55148],[41.20526,30.59504],[41.24055,30.60268],[41.25863,30.61372],[41.29251,30.60839],[41.32583,30.62038],[41.38826,30.61162],[41.44555,30.63066],[41.45165,30.62666],[41.45603,30.58935],[41.48306,30.5964],[41.53446,30.59487],[41.57596,30.57184],[41.63631,30.56365],[41.63973,30.55471],[41.65153,30.54938],[41.63631,30.53339],[41.63173,30.5134],[41.57977,30.47438],[41.58262,30.42926],[41.59119,30.41308],[41.61327,30.39671],[41.65876,30.37958],[41.67286,30.36587],[41.70883,30.37806],[41.7568,30.38034],[41.80267,30.32285],[41.84265,30.29582],[41.84912,30.27298],[41.87596,30.24233],[41.92964,30.19493],[41.97342,30.16961],[41.98979,30.15439],[41.99684,30.13554],[41.99075,30.12394],[41.96181,30.10527],[41.89614,30.09366],[41.87996,30.08529],[41.83865,30.08395],[41.81847,30.07387],[41.76133,30.01946],[41.75435,29.97344],[41.74385,29.95565],[41.69151,29.94557],[41.65419,29.9568],[41.63592,29.94576],[41.60775,29.94271],[41.58757,29.91416],[41.58795,29.89168],[41.55178,29.8778],[41.54493,29.85857],[41.50096,29.8502],[41.42976,29.82488],[41.43262,29.79785],[41.45222,29.79271],[41.4627,29.78014],[41.45013,29.76644],[41.44518,29.71314],[41.46022,29.67412],[41.45584,29.61852],[41.4627,29.59417],[41.4726,29.58503],[41.46612,29.56733],[41.48268,29.55857],[41.50324,29.58122],[41.53008,29.57646],[41.55293,29.59283],[41.55883,29.55552],[41.55178,29.49252],[41.58529,29.4493],[41.59234,29.41523],[41.62031,29.37259],[41.65533,29.34994],[41.6441,29.31682],[41.64506,29.25438],[41.64943,29.23496],[41.67837,29.20869],[41.66562,29.18184],[41.65649,29.17893],[41.66942,29.16781],[41.73908,29.14922],[41.80732,29.13922],[41.86762,29.13794],[41.98833,29.09632],[42.09873,29.09659],[42.18012,29.0636],[42.19346,29.05122],[42.21194,29.00022],[42.33284,28.88687],[42.37264,28.82041],[42.45279,28.81583],[42.49705,28.80274],[42.55701,28.80393],[42.59961,28.76563],[42.5889,28.73112],[42.62982,28.70185],[42.64481,28.67758],[42.66956,28.65617],[42.73285,28.67758],[42.76355,28.64023],[42.84255,28.62167],[42.85468,28.60358],[42.85587,28.57574],[42.84469,28.55885],[42.83303,28.51197],[42.8485,28.48746],[42.873,28.48033],[42.90275,28.45939],[42.89466,28.43179],[42.91298,28.4325],[42.93559,28.45154],[42.95652,28.45154],[42.98294,28.42917],[43.01315,28.44321],[43.01411,28.42417],[43.05384,28.40323],[43.08834,28.39776],[43.10143,28.40204],[43.13427,28.38943],[43.15569,28.36231],[43.179,28.388],[43.22017,28.40775],[43.23944,28.42775],[43.25753,28.47057],[43.28394,28.50341],[43.30392,28.51864],[43.33961,28.52673],[43.38126,28.52411],[43.41338,28.48461],[43.46763,28.47795],[43.50047,28.46096],[43.64679,28.43069],[43.70081,28.39377],[43.74043,28.39467],[43.78633,28.37325],[43.83414,28.37916],[43.87693,28.40784],[43.91517,28.4124],[43.93657,28.40876],[43.95705,28.42605],[44.2981,28.43812],[44.3288,28.35511],[44.35093,28.31472],[44.36766,28.25052],[44.53887,28.08963],[44.65023,28.00902],[44.6504,27.85215],[44.67066,27.83176]]]},"properties":{"region_id":9,"name_en":"Northern Borders","name_ar":"منطقة الحدود الشمالية"}},
{"type":"Feature","geometry":{"type":"Polygon","coordinates":[[[42.42302,16.10461],[42.42118,16.11031],[42.40298,16.10277],[42.40188,16.08862],[42.41713,16.09266],[42.42302,16.10461]]]},"properties":{"region_id":10,"name_en":"Jazan","name_ar":"منطقة جازان"}},
{"type":"Feature","geometry":{"type":"Polygon","coordinates":[[[44.3902,19.41716],[44.38337,19.39101],[44.39652,19.3412],[44.3872,19.31822],[44.43622,19.25394],[44.44079,19.2025],[44.43483,19.1888],[44.42284,19.1843],[44.42101,19.15982],[44.40452,19.11635],[44.36671,19.08853],[44.3762,19.02641],[44.37237,18.9706],[44.37654,18.93762],[44.36637,18.93363],[44.31702,18.94198],[44.20422,18.87085],[44.12305,18.77795],[44.05729,18.76318],[44.02874,18.74771],[44.01393,18.66913],[43.98478,18.64298],[44.00177,18.56119],[43.98496,18.55067],[43.91383,18.47641],[43.92732,18.46875],[43.99694,18.45876],[44.00128,18.44293],[43.98428,18.42661],[43.95763,18.41712],[43.94531,18.40063],[43.93568,18.40518],[43.92333,18.40132],[43.86069,18.35332],[43.84355,18.31199],[43.85339,18.28708],[43.83521,18.25955],[43.83005,18.26088],[43.81905,18.24922],[43.76105,18.24951],[43.74039,18.2418],[43.73513,18.23139],[43.75577,18.17813],[43.72012,18.14328],[43.71129,18.09998],[43.68434,18.06299],[43.70862,18.01803],[43.66953,17.9735],[43.66766,17.96092],[43.64568,17.95761],[43.64359,17.94482],[43.61335,17.90011],[43.62268,17.88012],[43.61935,17.87446],[43.60652,17.87313],[43.6118,17.85874],[43.59671,17.77943],[43.61152,17.75135],[43.5969,17.70687],[43.59586,17.65926],[43.60419,17.66026],[43.61527,17.64896],[43.6405,17.54451],[43.63797,17.52725],[43.72378,17.45389],[43.70412,17.4324],[43.68397,17.4309],[43.6943,17.41691],[43.69298,17.40208],[43.72044,17.37],[43.78889,17.375],[43.83194,17.33889],[43.90556,17.34167],[43.96667,17.33056],[44.01136,17.40247],[44.02328,17.39131],[44.04958,17.40492],[44.06667,17.40583],[44.10061,17.36606],[44.11083,17.36639],[44.13083,17.38361],[44.13806,17.40889],[44.36611,17.43333],[44.46667,17.43333],[44.56667,17.40556],[44.65,17.43333],[45.21667,17.43333],[45.4,17.33333],[46.1,17.25],[46.36667,17.23333],[46.75,17.28333],[47,16.95],[47.18333,16.95],[47.46667,17.11667],[47.6,17.45],[48.18333,18.16667],[49.11667,18.61667],[50.78333,18.78889],[52.00151,19.00052],[51.99754,19.3333],[50.73711,19.33322],[49.78498,19.33315],[49.4894,19.33313],[47.5244,19.333],[46.53732,19.31575],[45.40699,19.2959],[45.40559,19.30448],[45.36167,19.30389],[45.11917,19.20833],[45.08889,19.44889],[44.55294,19.4195],[44.3902,19.41716]]]},"properties":{"region_id":11,"name_en":"Najran","name_ar":"منطقة نجران"}},
{"type":"Feature","geometry":{"type":"Polygon","coordinates":[[[42.11894,20.40995],[42.12972,20.41705],[42.12787,20.45124],[42.11306,20.50105],[42.11756,20.51487],[42.09972,20.52631],[42.1026,20.54207],[42.12539,20.57614],[42.08068,20.58987],[42.02724,20.62754],[41.958,20.65578],[41.9373,20.68785],[41.89852,20.654],[41.8897,20.65471],[41.85254,20.63514],[41.7297,20.65799],[41.66512,20.67832],[41.642,20.69681],[41.62457,20.72558],[41.60554,20.7413],[41.55673,20.76346],[41.53623,20.76692],[41.52505,20.76011],[41.505,20.76153],[41.46863,20.78205],[41.44236,20.82307],[41.39798,20.82792],[41.34498,20.79819],[41.32825,20.76968],[41.33899,20.68644],[41.31695,20.66918],[41.31595,20.6492],[41.29854,20.63877],[41.30502,20.61938],[41.29604,20.6201],[41.28369,20.6008],[41.28083,20.56525],[41.28814,20.55294],[41.28347,20.54503],[41.28669,20.52815],[41.26484,20.51757],[41.26337,20.50129],[41.24097,20.4809],[41.24767,20.47279],[41.23287,20.46926],[41.21136,20.44952],[41.20073,20.45375],[41.1998,20.4379],[41.20992,20.42492],[41.2098,20.41032],[41.19305,20.38488],[41.19172,20.34382],[41.17321,20.3408],[41.16835,20.32541],[41.14582,20.32463],[41.122,20.37154],[41.09255,20.37887],[41.02163,20.35848],[41.01913,20.34982],[41.03181,20.34779],[41.03146,20.32609],[41.00001,20.28718],[40.978,20.27881],[40.9889,20.24538],[40.88277,20.17557],[40.82916,20.12234],[40.84852,20.10972],[40.86459,20.10992],[40.84891,20.09166],[40.84824,20.05347],[40.85598,19.99678],[40.88912,19.97637],[40.89758,19.96298],[40.88877,19.92525],[40.93707,19.90692],[40.93672,19.89528],[40.95152,19.88717],[40.97127,19.86144],[40.99771,19.81349],[41.03932,19.83711],[41.046,19.83429],[41.04517,19.8123],[41.00793,19.75884],[41.00512,19.73698],[41.03156,19.71336],[41.06399,19.70419],[41.15257,19.64624],[41.19416,19.63812],[41.20227,19.62671],[41.19847,19.61072],[41.17272,19.58445],[41.13737,19.56827],[41.14339,19.55858],[41.14168,19.54611],[41.11404,19.54604],[41.108,19.53561],[41.09898,19.53904],[41.09471,19.53192],[41.09838,19.51877],[41.10294,19.51167],[41.11635,19.5097],[41.14685,19.5265],[41.17297,19.52534],[41.19185,19.53491],[41.23558,19.52428],[41.27443,19.52917],[41.27564,19.52022],[41.25515,19.48957],[41.25871,19.44581],[41.30174,19.45867],[41.32952,19.4925],[41.37091,19.50089],[41.43735,19.48785],[41.45986,19.51005],[41.47114,19.51086],[41.46953,19.52939],[41.48927,19.51711],[41.50479,19.52939],[41.5145,19.51462],[41.52231,19.52537],[41.54407,19.52798],[41.55173,19.5572],[41.53949,19.59336],[41.54336,19.6005],[41.57552,19.61632],[41.57348,19.63194],[41.55354,19.6539],[41.5546,19.67513],[41.61586,19.70824],[41.66389,19.71863],[41.67186,19.72526],[41.67946,19.71059],[41.70171,19.69926],[41.71637,19.71549],[41.70624,19.75032],[41.71135,19.75766],[41.73603,19.75744],[41.76021,19.74823],[41.77093,19.75847],[41.78304,19.75266],[41.80369,19.81352],[41.78807,19.85943],[41.80765,19.8737],[41.80745,19.88941],[41.84421,19.92015],[41.83978,19.97211],[41.84502,19.98934],[41.85469,19.99619],[41.84275,20.00548],[41.85428,20.03248],[41.8451,20.07013],[41.84593,20.09868],[41.85061,20.10359],[41.87126,20.07702],[41.87803,20.08811],[41.87279,20.11061],[41.87652,20.12392],[41.86376,20.14933],[41.8769,20.18332],[41.91798,20.23072],[41.96627,20.24759],[41.97186,20.27671],[41.99471,20.28609],[41.98613,20.30755],[42.00838,20.35953],[42.08064,20.40454],[42.11894,20.40995]]]},"properties":{"region_id":12,"name_en":"Bahah","name_ar":"منطقة الباحة"}},
{"type":"Feature","geometry":{"type":"Polygon","coordinates":[[[39.21392,28.36794],[39.28691,28.39092],[39.29586,28.39968],[39.33051,28.40425],[39.39466,28.40101],[39.43882,28.41148],[39.46871,28.43261],[39.52201,28.44936],[39.62309,28.4564],[39.66515,28.47658],[39.6958,28.47925],[39.78508,28.55234],[39.87169,28.60107],[39.91319,28.642],[40.09669,28.69682],[40.30038,28.79238],[40.49968,28.86681],[40.54822,28.90393],[40.58115,28.9165],[40.8585,28.92316],[41.1941,28.92011],[41.23503,28.91363],[41.34867,28.92202],[41.42786,28.91897],[41.40425,29.01301],[41.43872,29.07487],[41.45108,29.14854],[41.50286,29.18128],[41.61404,29.20788],[41.65649,29.17893],[41.66562,29.18184],[41.67837,29.20869],[41.64943,29.23496],[41.64506,29.25438],[41.6441,29.31682],[41.65533,29.34994],[41.62031,29.37259],[41.59234,29.41523],[41.58529,29.4493],[41.55178,29.49252],[41.55883,29.55552],[41.55293,29.59283],[41.53008,29.57646],[41.50324,29.58122],[41.48268,29.55857],[41.46612,29.56733],[41.4726,29.58503],[41.4627,29.59417],[41.45584,29.61852],[41.46022,29.67412],[41.44518,29.71314],[41.45013,29.76644],[41.4627,29.78014],[41.45222,29.79271],[41.43262,29.79785],[41.42976,29.82488],[41.50096,29.8502],[41.54493,29.85857],[41.55178,29.8778],[41.58795,29.89168],[41.58757,29.91416],[41.60775,29.94271],[41.63592,29.94576],[41.65419,29.9568],[41.69151,29.94557],[41.74385,29.95565],[41.75435,29.97344],[41.76133,30.01946],[41.81847,30.07387],[41.83865,30.08395],[41.87996,30.08529],[41.89614,30.09366],[41.96181,30.10527],[41.99075,30.12394],[41.99684,30.13554],[41.98979,30.15439],[41.97342,30.16961],[41.92964,30.19493],[41.87596,30.24233],[41.84912,30.27298],[41.84265,30.29582],[41.80267,30.32285],[41.7568,30.38034],[41.70883,30.37806],[41.67286,30.36587],[41.65876,30.37958],[41.61327,30.39671],[41.59119,30.41308],[41.58262,30.42926],[41.57977,30.47438],[41.63173,30.5134],[41.63631,30.53339],[41.65153,30.54938],[41.63973,30.55471],[41.63631,30.56365],[41.57596,30.57184],[41.53446,30.59487],[41.48306,30.5964],[41.45603,30.58935],[41.45165,30.62666],[41.44555,30.63066],[41.38826,30.61162],[41.32583,30.62038],[41.29251,30.60839],[41.25863,30.61372],[41.24055,30.60268],[41.20526,30.59504],[41.18203,30.55148],[41.13318,30.5344],[41.11986,30.6259],[41.13623,30.67996],[41.12272,30.70052],[41.12329,30.72051],[41.11339,30.73193],[41.11472,30.76124],[41.10559,30.7719],[41.05153,30.78504],[41.04429,30.79246],[41.00298,30.79989],[40.89562,30.7936],[40.88401,30.79722],[40.70222,30.77133],[40.63838,30.7429],[40.47874,30.82273],[40.46732,30.81835],[40.44847,30.82197],[40.43724,30.8332],[40.42582,30.83071],[40.41801,30.83853],[40.40412,30.83777],[40.39594,30.8471],[40.3493,30.84176],[40.32875,30.85623],[40.30304,30.85776],[40.28686,30.85585],[40.288,30.84024],[40.27449,30.83758],[40.26421,30.81283],[40.23565,30.80122],[40.2151,30.77324],[40.19149,30.7641],[40.15076,30.77248],[40.11744,30.76619],[40.09726,30.77114],[40.06643,30.79476],[40.05729,30.81454],[40.01922,30.8155],[40.00494,30.82139],[39.97392,30.85661],[39.89948,30.88821],[39.88787,30.90915],[39.83609,30.89297],[39.79555,30.86784],[39.76395,30.86366],[39.74263,30.8707],[39.7017,30.90059],[39.661,30.95176],[39.61217,30.96315],[39.58346,30.96334],[39.55733,30.955],[39.55289,30.94833],[39.53399,30.95759],[39.45519,30.90839],[39.43349,30.9063],[39.38819,30.92248],[39.37315,30.94913],[39.34575,30.96093],[39.30285,30.96147],[39.21001,30.98149],[39.11141,30.98073],[39.05011,30.97292],[39.00481,30.97616],[38.99034,30.96112],[38.97054,30.95446],[38.93171,30.96075],[38.85785,30.90744],[38.80627,30.91086],[38.80512,30.89411],[38.77847,30.89716],[38.76458,30.91258],[38.7621,30.92723],[38.72232,30.9417],[38.58393,30.94341],[38.49465,30.91678],[38.41032,30.9042],[38.39909,30.90953],[38.38919,30.90382],[38.32009,30.89887],[38.27212,30.88764],[38.2449,30.86194],[38.21521,30.86651],[38.17961,30.85814],[38.18989,30.87698],[38.18646,30.93466],[38.17428,30.94494],[38.16933,30.97882],[38.18132,30.99253],[38.19046,31.02127],[38.18171,31.05135],[38.19008,31.06658],[38.18301,31.08627],[38.20348,31.12914],[38.2204,31.13368],[38.21517,31.14152],[38.219,31.15252],[38.26225,31.15705],[38.26679,31.16839],[38.29382,31.19053],[38.29574,31.2364],[38.29155,31.24373],[38.28144,31.24093],[38.27725,31.24965],[38.26644,31.24582],[38.24412,31.25332],[38.22807,31.28715],[38.23138,31.30128],[38.22336,31.31907],[38.21975,31.31596],[38.22468,31.32728],[38.22248,31.41085],[38.20159,31.47243],[38.09602,31.51202],[37.95525,31.59585],[37.96888,31.63289],[37.96451,31.6584],[37.98887,31.68657],[37.96697,31.70827],[37.9842,31.74987],[37.00588,31.50075],[38.00588,30.5007],[37.67252,30.33404],[37.50582,30.0007],[37.36565,29.97614],[37.417,29.90521],[37.49552,29.92782],[37.53773,29.92683],[37.58181,29.89079],[37.60217,29.86547],[37.61969,29.85481],[37.67261,29.83997],[37.68841,29.8255],[37.72686,29.80646],[37.71296,29.74536],[37.73714,29.717],[37.72419,29.67207],[37.73295,29.63724],[37.72172,29.60088],[37.7202,29.56395],[37.81556,29.56205],[37.87781,29.55405],[37.93016,29.55786],[37.96328,29.57023],[37.97281,29.58584],[37.99659,29.59764],[38.02439,29.58298],[38.0537,29.58413],[38.07826,29.56604],[38.0952,29.56718],[38.13023,29.54149],[38.16392,29.5392],[38.18581,29.54528],[38.19076,29.51312],[38.23892,29.46039],[38.2353,29.41944],[38.29058,29.38631],[38.3128,29.36206],[38.31506,29.34328],[38.29977,29.30696],[38.27105,29.27778],[38.20483,29.25405],[38.2068,29.21942],[38.18797,29.20441],[38.21627,29.19542],[38.22445,29.18457],[38.21855,29.1602],[38.19742,29.12822],[38.20389,29.10024],[38.19952,29.06122],[38.20485,29.01686],[38.28308,29.0163],[38.30897,29.0064],[38.32991,29.01268],[38.36474,29.00525],[38.36404,29.04736],[38.37909,29.08959],[38.41317,29.10793],[38.42376,29.12099],[38.38206,29.17524],[38.37997,29.20684],[38.39216,29.2135],[38.44184,29.19599],[38.45897,29.20189],[38.52579,29.27365],[38.56043,29.33],[38.58289,29.32429],[38.65523,29.27994],[38.76963,29.25728],[38.77135,29.08596],[38.77839,29.04218],[38.79514,29.01744],[38.77725,29.01001],[38.77135,28.99954],[38.7782,28.9746],[38.77687,28.93025],[38.85654,28.93534],[38.89258,28.89877],[38.9113,28.903],[38.92649,28.89453],[38.93161,28.87899],[38.94734,28.87687],[38.97224,28.85108],[38.98655,28.85231],[39.01764,28.71895],[39.05102,28.6407],[39.05579,28.59747],[39.08144,28.61388],[39.1256,28.62607],[39.17909,28.62873],[39.1966,28.61369],[39.21069,28.57999],[39.22268,28.50842],[39.21088,28.42676],[39.21392,28.36794]]]},"properties":{"region_id":13,"name_en":"Jawf","name_ar":"منطقة الجوف"}}
]}